RecordNumber,Zipcode,City,State
41224,96101,ALTURAS,CA
41225,96101,ALTURAS RANCHERIA,CA
41226,96101,CALIFORNIA PINES,CA
41227,96101,XL RANCH INDIAN RESERVATION,CA
41228,96103,BLAIRSDEN-GRAEAGLE,CA
41229,96103,BLAIRSDEN,CA
41230,96103,BLRSDN-GREAGL,CA
41231,96103,CROMBERG,CA
41232,96103,GRAEAGLE,CA
41233,96103,JOHNSVILLE,CA
41234,96140,CARNELIAN BAY,CA
41235,96140,AGATE BAY,CA
41236,96140,CEDAR FLAT,CA
41237,96140,FLICK POINT,CA
41238,96140,FULTON ACRES,CA
41239,96140,RIDGEWOOD,CA
41240,96104,CEDARVILLE,CA
41241,96105,CHILCOOT,CA
41242,96106,CLIO,CA
41243,96107,COLEVILLE,CA
41244,96107,WALKER,CA
41245,96108,DAVIS CREEK,CA
41246,96108,WILLOW RANCH,CA
41247,96109,DOYLE,CA
41248,96110,EAGLEVILLE,CA
41249,96111,FLORISTON,CA
41250,96112,FORT BIDWELL,CA
41251,96112,FT BIDWELL,CA
41252,96113,HERLONG,CA
41253,96113,PATTON VILLAGE,CA
41254,96113,SIERRA ARMY DEPOT,CA
41255,96141,HOMEWOOD,CA
41256,96141,TAHOE PINES,CA
41257,96142,TAHOMA,CA
41258,96142,MEEKS BAY,CA
41259,96142,RUBICON BAY,CA
41260,96114,JANESVILLE,CA
41261,96136,WENDEL,CA
41262,96143,KINGS BEACH,CA
41263,96143,BROCKWAY,CA
41264,96115,LAKE CITY,CA
41265,96116,LIKELY,CA
41266,96117,LITCHFIELD,CA
41267,96118,LOYALTON,CA
41268,96119,MADELINE,CA
41269,96120,MARKLEEVILLE,CA
41270,96120,HOPE VALLEY,CA
41271,96120,CRYSTAL SPRINGS,CA
41272,96120,EMIGRANT TRAIL,CA
41273,96120,FREDRICKSBURG,CA
41274,96120,MESA VISTA,CA
41275,96120,WOODFORDS,CA
41276,96121,MILFORD,CA
41277,96122,PORTOLA,CA
41278,96122,DELLEKER,CA
41279,96129,BECKWOURTH,CA
41280,96129,PORTOLA,CA
41281,96123,RAVENDALE,CA
41282,96132,TERMO,CA
41283,96124,CALPINE,CA
41284,96124,SATTLEY,CA
41285,96125,SIERRA CITY,CA
41286,96125,BASSETTS,CA
41287,96126,SIERRAVILLE,CA
41288,96150,SOUTH LAKE TAHOE,CA
41289,96150,S LAKE TAHOE,CA
41290,96151,SOUTH LAKE TAHOE,CA
41291,96151,FALLEN LEAF,CA
41292,96151,S LAKE TAHOE,CA
41293,96152,SOUTH LAKE TAHOE,CA
41294,96152,S LAKE TAHOE,CA
41295,96154,SOUTH LAKE TAHOE,CA
41296,96154,S LAKE TAHOE,CA
41297,96155,SOUTH LAKE TAHOE,CA
41298,96155,S LAKE TAHOE,CA
41299,96155,MEYERS,CA
41300,96155,TAHOE PARADISE,CA
41301,96156,SOUTH LAKE TAHOE,CA
41302,96156,S LAKE TAHOE,CA
41303,96156,BIJOU,CA
41304,96156,CAMP RICHARDSON,CA
41305,96157,SOUTH LAKE TAHOE,CA
41306,96157,S LAKE TAHOE,CA
41307,96157,STATELINE,CA
41308,96158,SOUTH LAKE TAHOE,CA
41309,96158,S LAKE TAHOE,CA
41310,96158,TAHOE VALLEY,CA
41311,96128,STANDISH,CA
41312,96127,SUSANVILLE,CA
41313,96130,SUSANVILLE,CA
41314,96130,CALIFORNIA CONSERVATION CENT,CA
41315,96130,EAGLE LAKE RESORT,CA
41316,96130,JOHNSTONVILLE,CA
41317,96130,SPAULDING,CA
41318,96145,TAHOE CITY,CA
41319,96145,ALPINE MDWS,CA
41320,96145,ALPINE MEADOWS,CA
41321,96146,OLYMPIC VALLEY,CA
41322,96146,ALPINE MDWS,CA
41323,96146,ALPINE MEADOWS,CA
41324,96146,OLYMPIC VLY,CA
41325,96146,TAHOE CITY,CA
41326,96148,TAHOE VISTA,CA
41327,96133,TOPAZ,CA
41328,96160,TRUCKEE,CA
41329,96161,TRUCKEE,CA
41330,96161,NORTHSTAR,CA
41331,96161,BOCA,CA
41332,96161,DONNER LAKE,CA
41333,96161,GLENSHIRE,CA
41334,96161,HOBART MILLS,CA
41335,96161,PROSSER LAKEVIEW,CA
41336,96161,TAHOE DONNER,CA
41337,96162,TRUCKEE,CA
41338,96162,DONNER,CA
41339,96162,WEST TRUCKEE,CA
41340,96134,TULELAKE,CA
41341,96134,NEWELL,CA
41342,96134,TIONESTA,CA
41343,96134,LAVA BEDS NATIONAL MONUMENT,CA
41344,96134,MEDICINE LAKE LODGE,CA
41345,96135,VINTON,CA
41346,96137,WESTWOOD,CA
41347,96137,LAKE ALMANOR,CA
41348,96137,CLEAR CREEK,CA
41349,96137,LAKE ALMANOR SPORTS & SPIRIT,CA
44648,90201,BELL GARDENS,CA
44649,90201,BELL,CA
44650,90201,CUDAHY,CA
44651,90202,BELL,CA
44652,90202,BELL GARDENS,CA
44653,90270,MAYWOOD,CA
44654,90270,BELL GARDENS,CA
44655,90209,BEVERLY HILLS,CA
44656,90210,BEVERLY HILLS,CA
44657,90211,BEVERLY HILLS,CA
44658,90212,BEVERLY HILLS,CA
44659,90213,BEVERLY HILLS,CA
44660,90220,COMPTON,CA
44661,90220,CRYSTAL CITY,CA
44662,90220,RANCHO DOMINGUEZ,CA
44663,90220,RNCHO DOMINGZ,CA
44664,90221,COMPTON,CA
44665,90221,E RNCHO DMNGZ,CA
44666,90221,EAST RANCHO DOMINGUEZ,CA
44667,90222,COMPTON,CA
44668,90222,ROSEWOOD,CA
44669,90223,COMPTON,CA
44670,90224,COMPTON,CA
44671,90224,RANCHO DOMINGUEZ,CA
44672,90224,RNCHO DOMINGZ,CA
44673,90230,CULVER CITY,CA
44674,90230,LOS ANGELES,CA
44675,90231,CULVER CITY,CA
44676,90232,CULVER CITY,CA
44677,90233,CULVER CITY,CA
44678,90239,DOWNEY,CA
44679,90240,DOWNEY,CA
44680,90241,DOWNEY,CA
44681,90242,DOWNEY,CA
44682,90245,EL SEGUNDO,CA
44683,90247,GARDENA,CA
44684,90248,GARDENA,CA
44685,90249,GARDENA,CA
44686,90250,HAWTHORNE,CA
44687,90250,HOLLY PARK,CA
44688,90250,HOLLYGLEN,CA
44689,90251,HAWTHORNE,CA
44690,90255,HUNTINGTON PARK,CA
44691,90255,HUNTINGTON PK,CA
44692,90255,WALNUT PARK,CA
44693,90301,INGLEWOOD,CA
44694,90302,INGLEWOOD,CA
44695,90303,INGLEWOOD,CA
44696,90304,INGLEWOOD,CA
44697,90304,LENNOX,CA
44698,90305,INGLEWOOD,CA
44699,90306,INGLEWOOD,CA
44700,90307,INGLEWOOD,CA
44701,90308,INGLEWOOD,CA
44702,90309,INGLEWOOD,CA
44703,90310,INGLEWOOD,CA
44704,90311,INGLEWOOD,CA
44705,90312,INGLEWOOD,CA
44706,90260,LAWNDALE,CA
44707,90261,LAWNDALE,CA
44708,90001,LOS ANGELES,CA
44709,90001,FIRESTONE PARK,CA
44710,90001,FIRESTONE PK,CA
44711,90002,LOS ANGELES,CA
44712,90002,AUGUST F. HAW,CA
44713,90002,WATTS,CA
44714,90003,LOS ANGELES,CA
44715,90003,BROADWAY MANCHESTER,CA
44716,90004,LOS ANGELES,CA
44717,90004,OAKWOOD,CA
44718,90005,LOS ANGELES,CA
44719,90005,SANFORD,CA
44720,90006,LOS ANGELES,CA
44721,90006,PICO HEIGHTS,CA
44722,90007,LOS ANGELES,CA
44723,90007,DOCKWEILER,CA
44724,90008,LOS ANGELES,CA
44725,90008,BALDWIN HILLS,CA
44726,90008,LEIMERT PARK,CA
44727,90008,CRENSHAW,CA
44728,90009,LOS ANGELES,CA
44729,90009,LOS ANGELES AFB,CA
44730,90009,LOS ANGLS AFB,CA
44731,90009,LOS ANGELES INTERNATIONAL AI,CA
44732,90010,LOS ANGELES,CA
44733,90010,SANFORD,CA
44734,90011,LOS ANGELES,CA
44735,90012,LOS ANGELES,CA
44736,90012,FEDERAL,CA
44737,90013,LOS ANGELES,CA
44738,90013,FEDERAL,CA
44739,90014,LOS ANGELES,CA
44740,90015,LOS ANGELES,CA
44741,90015,DEL VALLE FINANCE,CA
44742,90015,DOWTOWN CARRIER ANNEX,CA
44743,90015,TEXTILE FINANCE,CA
44744,90016,LOS ANGELES,CA
44745,90016,WEST ADAMS,CA
44746,90017,LOS ANGELES,CA
44747,90017,FOY,CA
44748,90018,LOS ANGELES,CA
44749,90018,CIMARRON,CA
44750,90018,DOCKWEILER,CA
44751,90019,LOS ANGELES,CA
44752,90019,RIMPAU,CA
44753,90020,LOS ANGELES,CA
44754,90020,SANFORD,CA
44755,90021,LOS ANGELES,CA
44756,90021,MARKET,CA
44757,90022,LOS ANGELES,CA
44758,90022,COMMERCE,CA
44759,90022,EAST LOS ANGELES,CA
44760,90022,EST LS ANGLS,CA
44761,90023,LOS ANGELES,CA
44762,90023,COMMERCE,CA
44763,90023,LUGO,CA
44764,90024,LOS ANGELES,CA
44765,90024,VILLAGE,CA
44766,90025,LOS ANGELES,CA
44767,90025,W LOS ANGELES,CA
44768,90025,WEST LOS ANGELES,CA
44769,90025,WLA,CA
44770,90026,LOS ANGELES,CA
44771,90026,ECHO PARK,CA
44772,90026,EDENDALE,CA
44773,90026,SILVER LAKE,CA
44774,90027,LOS ANGELES,CA
44775,90027,HOLLYWOOD,CA
44776,90027,LOS FELIZ,CA
44777,90028,LOS ANGELES,CA
44778,90028,HOLLYWOOD,CA
44779,90029,LOS ANGELES,CA
44780,90029,VERMONT,CA
44781,90030,LOS ANGELES,CA
44782,90031,LOS ANGELES,CA
44783,90031,LINCOLN HEIGHTS,CA
44784,90031,LINCOLN HTS,CA
44785,90032,LOS ANGELES,CA
44786,90033,LOS ANGELES,CA
44787,90033,BOYLE HEIGHTS,CA
44788,90034,LOS ANGELES,CA
44789,90034,PALMS,CA
44790,90035,LOS ANGELES,CA
44791,90035,PREUSS,CA
44792,90036,LOS ANGELES,CA
44793,90036,FARMER MARKET,CA
44794,90036,MIRACLE MILE,CA
44795,90036,WILSHIRE-LA BREA,CA
44796,90037,LOS ANGELES,CA
44797,90037,GREEN,CA
44798,90038,LOS ANGELES,CA
44799,90038,W HOLLYWOOD,CA
44800,90038,WEST HOLLYWOOD,CA
44801,90038,HOLLYWOOD,CA
44802,90038,WILCOX,CA
44803,90039,LOS ANGELES,CA
44804,90039,GRIFFITH,CA
44805,90040,LOS ANGELES,CA
44806,90040,COMMERCE,CA
44807,90040,CTY OF CMMRCE,CA
44808,90041,LOS ANGELES,CA
44809,90041,EAGLE ROCK,CA
44810,90042,LOS ANGELES,CA
44811,90042,HIGHLAND PARK,CA
44812,90043,LOS ANGELES,CA
44813,90043,VIEW PARK,CA
44814,90043,WINDSOR HILLS,CA
44815,90043,LA TIJERA,CA
44816,90044,LOS ANGELES,CA
44817,90044,AUGUST F. HAW,CA
44818,90044,HANCOCK,CA
44819,90045,LOS ANGELES,CA
44820,90045,WESTCHESTER,CA
44821,90045,BRADLEY INTERNATIONAL,CA
44822,90045,PLAYA VISTA,CA
44823,90046,LOS ANGELES,CA
44824,90046,W HOLLYWOOD,CA
44825,90046,WEST HOLLYWOOD,CA
44826,90047,LOS ANGELES,CA
44827,90047,WAGNER,CA
44828,90048,LOS ANGELES,CA
44829,90048,W HOLLYWOOD,CA
44830,90048,WEST HOLLYWOOD,CA
44831,90048,BICENTENNIAL,CA
44832,90048,BRIGGS,CA
44833,90049,LOS ANGELES,CA
44834,90049,BARRINGTON,CA
44835,90049,BRENTWOOD,CA
44836,90050,LOS ANGELES,CA
44837,90051,LOS ANGELES,CA
44838,90051,AUGUST F. HAW,CA
44839,90052,LOS ANGELES,CA
44840,90053,LOS ANGELES,CA
44841,90054,LOS ANGELES,CA
44842,90055,LOS ANGELES,CA
44843,90056,LOS ANGELES,CA
44844,90056,BALDWIN HILLS,CA
44845,90056,WINDSOR HILLS,CA
44846,90056,CRENSHAW,CA
44847,90057,LOS ANGELES,CA
44848,90057,FLINT,CA
44849,90058,LOS ANGELES,CA
44850,90058,VERNON,CA
44851,90059,LOS ANGELES,CA
44852,90059,AUGUST F. HAW,CA
44853,90059,GREENMEAD,CA
44854,90060,LOS ANGELES,CA
44855,90061,LOS ANGELES,CA
44856,90061,AUGUST F. HAW,CA
44857,90061,SOUTH,CA
44858,90062,LOS ANGELES,CA
44859,90062,WESTVERN,CA
44860,90063,LOS ANGELES,CA
44861,90063,HAZARD,CA
44862,90064,LOS ANGELES,CA
44863,90064,RANCHO PARK,CA
44864,90065,LOS ANGELES,CA
44865,90065,GLASSELL,CA
44866,90065,GLASSELL PARK,CA
44867,90066,LOS ANGELES,CA
44868,90066,CULVER CTY,CA
44869,90066,MAR VISTA,CA
44870,90067,LOS ANGELES,CA
44871,90067,CENTURY CITY,CA
44872,90068,LOS ANGELES,CA
44873,90068,HOLLYWOOD,CA
44874,90069,WEST HOLLYWOOD,CA
44875,90069,LOS ANGELES,CA
44876,90069,W HOLLYWOOD,CA
44877,90070,LOS ANGELES,CA
44878,90071,LOS ANGELES,CA
44879,90071,ARCO,CA
44880,90071,ARCO-PLAZA,CA
44881,90072,LOS ANGELES,CA
44882,90072,SANTA WESTERN,CA
44883,90073,LOS ANGELES,CA
44884,90073,VETERANS ADM,CA
44885,90073,VETERANS ADMIN,CA
44886,90073,VETERANS ADMINISTRATION,CA
44887,90073,VETERANS ADMN,CA
44888,90074,LOS ANGELES,CA
44889,90074,BANK OF AMERICA,CA
44890,90075,LOS ANGELES,CA
44891,90076,LOS ANGELES,CA
44892,90077,LOS ANGELES,CA
44893,90077,BARRINGTON,CA
44894,90078,LOS ANGELES,CA
44895,90078,HOLLYWOOD,CA
44896,90079,LOS ANGELES,CA
44897,90079,TEXTILE BOXES,CA
44898,90080,LOS ANGELES,CA
44899,90081,LOS ANGELES,CA
44900,90082,LOS ANGELES,CA
44901,90083,LOS ANGELES,CA
44902,90084,LOS ANGELES,CA
44903,90084,WELLS FARGO,CA
44904,90086,LOS ANGELES,CA
44905,90087,LOS ANGELES,CA
44906,90088,LOS ANGELES,CA
44907,90088,WELLS FARGO,CA
44908,90089,LOS ANGELES,CA
44909,90089,UNIVERSITY OF SOUTHERN CA,CA
44910,90090,DODGERTOWN,CA
44911,90090,LOS ANGELES,CA
44912,90090,LOS ANGELES DODGERS,CA
44913,90091,LOS ANGELES,CA
44914,90091,COMMERCE,CA
44915,90091,CTY OF CMMRCE,CA
44916,90093,LOS ANGELES,CA
44917,90094,PLAYA VISTA,CA
44918,90094,LOS ANGELES,CA
44919,90095,LOS ANGELES,CA
44920,90095,UCLA,CA
44921,90096,LOS ANGELES,CA
44922,90096,SHARED FIRM ZIP CODE,CA
44923,90099,LOS ANGELES,CA
44924,90099,BAR CODE TERM ANNEX,CA
44925,90101,LOS ANGELES,CA
44926,90101,BULK MAIL CENTER,CA
44927,90101,LA,CA
44928,90103,LOS ANGELES,CA
44929,90103,RODALE PRESS,CA
44930,90189,LOS ANGELES,CA
44931,90189,CITIBANK,CA
44932,90262,LYNWOOD,CA
44933,90263,MALIBU,CA
44934,90264,MALIBU,CA
44935,90265,MALIBU,CA
44936,90266,MANHATTAN BEACH,CA
44937,90266,MANHATTAN BCH,CA
44938,90267,MANHATTAN BEACH,CA
44939,90267,MANHATTAN BCH,CA
44940,90272,PACIFIC PALISADES,CA
44941,90272,PACIFIC PLSDS,CA
44942,90274,PALOS VERDES PENINSULA,CA
44943,90274,PALOS VERDES ESTATES,CA
44944,90274,PLS VRDS EST,CA
44945,90274,PLS VRDS PNSL,CA
44946,90274,RLLNG HLS EST,CA
44947,90274,ROLLING HILLS,CA
44948,90274,ROLLING HILLS ESTATES,CA
44949,90275,RANCHO PALOS VERDES,CA
44950,90275,PALOS VERDES ESTATES,CA
44951,90275,PALOS VERDES PENINSULA,CA
44952,90275,PLS VRDS EST,CA
44953,90275,PLS VRDS PNSL,CA
44954,90275,RCH PALOS VRD,CA
44955,90275,RLLNG HLS EST,CA
44956,90275,ROLLING HILLS ESTATES,CA
44957,90254,HERMOSA BEACH,CA
44958,90277,REDONDO BEACH,CA
44959,90278,REDONDO BEACH,CA
44960,90401,SANTA MONICA,CA
44961,90402,SANTA MONICA,CA
44962,90403,SANTA MONICA,CA
44963,90404,SANTA MONICA,CA
44964,90405,SANTA MONICA,CA
44965,90406,SANTA MONICA,CA
44966,90407,SANTA MONICA,CA
44967,90408,SANTA MONICA,CA
44968,90409,SANTA MONICA,CA
44969,90410,SANTA MONICA,CA
44970,90411,SANTA MONICA,CA
44971,90280,SOUTH GATE,CA
44972,90290,TOPANGA,CA
44973,90291,VENICE,CA
44974,90291,PLAYA DEL REY,CA
44975,90291,MARINA DEL REY,CA
44976,90292,MARINA DEL REY,CA
44977,90292,MARINA DL REY,CA
44978,90292,VENICE,CA
44979,90293,PLAYA DEL REY,CA
44980,90293,VENICE,CA
44981,90294,VENICE,CA
44982,90295,MARINA DEL REY,CA
44983,90295,MARINA DL REY,CA
44984,90295,VENICE,CA
44985,90296,PLAYA DEL REY,CA
44986,90296,VENICE,CA
44987,93510,ACTON,CA
44988,91301,AGOURA HILLS,CA
44989,91301,AGOURA,CA
44990,91301,CALABASAS,CA
44991,91301,CALABASAS HILLS,CA
44992,91301,CALABASAS HLS,CA
44993,91301,CORNELL,CA
44994,91301,OAK PARK,CA
44995,91301,SARATOGA HILLS,CA
44996,91301,SARATOGA HLS,CA
44997,91376,AGOURA HILLS,CA
44998,91376,AGOURA,CA
44999,91377,OAK PARK,CA
45000,91377,AGOURA HILLS,CA
45001,93201,ALPAUGH,CA
45002,91001,ALTADENA,CA
45003,91003,ALTADENA,CA
45004,91006,ARCADIA,CA
45005,91007,ARCADIA,CA
45006,91066,ARCADIA,CA
45007,91077,ARCADIA,CA
45008,93202,ARMONA,CA
45009,93420,ARROYO GRANDE,CA
45010,93420,HALCYON,CA
45011,93420,PISMO BEACH,CA
45012,93421,ARROYO GRANDE,CA
45013,93421,HALCYON,CA
45014,93203,ARVIN,CA
45015,93203,DI GIORGIO,CA
45016,93422,ATASCADERO,CA
45017,93423,ATASCADERO,CA
45018,93204,AVENAL,CA
45019,93424,AVILA BEACH,CA
45020,93301,BAKERSFIELD,CA
45021,93302,BAKERSFIELD,CA
45022,93303,BAKERSFIELD,CA
45023,93304,BAKERSFIELD,CA
45024,93305,BAKERSFIELD,CA
45025,93306,BAKERSFIELD,CA
45026,93307,BAKERSFIELD,CA
45027,93307,DEL KERN,CA
45028,93308,BAKERSFIELD,CA
45029,93309,BAKERSFIELD,CA
45030,93311,BAKERSFIELD,CA
45031,93312,BAKERSFIELD,CA
45032,93313,BAKERSFIELD,CA
45033,93313,PUMPKIN CENTER,CA
45034,93313,PUMPKIN CTR,CA
45035,93313,METTLER,CA
45036,93314,BAKERSFIELD,CA
45037,93314,SHAFTER,CA
45038,93380,BAKERSFIELD,CA
45039,93383,BAKERSFIELD,CA
45040,93383,PUMPKIN CENTER,CA
45041,93383,PUMPKIN CTR,CA
45042,93384,BAKERSFIELD,CA
45043,93385,BAKERSFIELD,CA
45044,93386,BAKERSFIELD,CA
45045,93387,BAKERSFIELD,CA
45046,93388,BAKERSFIELD,CA
45047,93389,BAKERSFIELD,CA
45048,93390,BAKERSFIELD,CA
45049,93513,BIG PINE,CA
45050,93512,BENTON,CA
45051,93512,BISHOP,CA
45052,93514,BISHOP,CA
45053,93514,CHALFANT,CA
45054,93514,CHALFANT VALLEY,CA
45055,93514,CHALFANT VLY,CA
45056,93514,HAMMIL VALLEY,CA
45057,93514,SWALL MEADOWS,CA
45058,93514,LAWS,CA
45059,93514,ROUND VALLEY,CA
45060,93514,ROVANA,CA
45061,93515,BISHOP,CA
45062,93205,BODFISH,CA
45063,93516,BORON,CA
45064,93516,DESERT LAKE,CA
45065,93516,FOUR CORNERS,CA
45066,93516,KRAMER JUNCTION,CA
45067,93596,BORON,CA
45068,93426,BRADLEY,CA
45069,93426,LAKE NACIMIENTO,CA
45070,93426,NACIMIENTO LAKE,CA
45071,93426,OAK SHORES,CA
45072,93517,BRIDGEPORT,CA
45073,93427,BUELLTON,CA
45074,91501,BURBANK,CA
45075,91501,STARLIGHT HILLS,CA
45076,91502,BURBANK,CA
45077,91503,BURBANK,CA
45078,91504,BURBANK,CA
45079,91505,BURBANK,CA
45080,91506,BURBANK,CA
45081,91507,BURBANK,CA
45082,91507,MAGNOLIA PARK,CA
45083,91508,BURBANK,CA
45084,91510,BURBANK,CA
45085,91521,BURBANK,CA
45086,91521,DISNEY PRODUCTIONS,CA
45087,91522,BURBANK,CA
45088,91522,BURBANK STUDIOS,CA
45089,91523,BURBANK,CA
45090,91523,N B C,CA
45091,91526,BURBANK,CA
45092,91526,WALT DISNEY CO,CA
45093,93206,BUTTONWILLOW,CA
45094,93518,CALIENTE,CA
45095,93518,HAVILAH,CA
45096,93518,LORAINE,CA
45097,93207,CALIFORNIA HOT SPRINGS,CA
45098,93207,CALIF HOT SPG,CA
45099,93010,CAMARILLO,CA
45100,93011,CAMARILLO,CA
45101,93012,CAMARILLO,CA
45102,93012,SANTA ROSA VA,CA
45103,93012,SANTA ROSA VALLEY,CA
45104,93428,CAMBRIA,CA
45105,93435,HARMONY,CA
45106,91303,CANOGA PARK,CA
45107,91303,WOODLAND HILLS,CA
45108,91303,WOODLAND HLS,CA
45109,91304,CANOGA PARK,CA
45110,91304,BOX CANYON,CA
45111,91304,WEST HILLS,CA
45112,91305,CANOGA PARK,CA
45113,91306,WINNETKA,CA
45114,91306,CANOGA PARK,CA
45115,91307,WEST HILLS,CA
45116,91307,BELL CANYON,CA
45117,91307,CANOGA PARK,CA
45118,91308,WEST HILLS,CA
45119,91308,CANOGA PARK,CA
45120,91309,CANOGA PARK,CA
45121,91396,WINNETKA,CA
45122,91396,CANOGA PARK,CA
45123,93013,CARPINTERIA,CA
45124,93014,CARPINTERIA,CA
45125,93429,CASMALIA,CA
45126,93430,CAYUCOS,CA
45127,91311,CHATSWORTH,CA
45128,91313,CHATSWORTH,CA
45129,93210,COALINGA,CA
45130,93212,CORCORAN,CA
45131,93282,WAUKENA,CA
45132,93282,CORCORAN,CA
45133,93432,CRESTON,CA
45134,93522,DARWIN,CA
45135,93215,DELANO,CA
45136,93216,DELANO,CA
45137,91008,DUARTE,CA
45138,91008,BRADBURY,CA
45139,91009,DUARTE,CA
45140,91010,DUARTE,CA
45141,91010,BRADBURY,CA
45142,91010,IRWINDALE,CA
45143,93218,DUCOR,CA
45144,93219,EARLIMART,CA
45145,93219,ALLENSWORTH,CA
45146,93220,EDISON,CA
45147,93523,EDWARDS,CA
45148,93523,AERIAL ACRES,CA
45149,93523,NORTH EDWARDS,CA
45150,93523,EDWARD,CA
45151,93523,EDWARDS AIR FORCE BASE,CA
45152,93524,EDWARDS,CA
45153,93524,EDWARDS AFB,CA
45154,93524,EDWARD,CA
45155,93524,EDWARDS AIR FORCE BASE,CA
45156,93221,EXETER,CA
45157,93223,FARMERSVILLE,CA
45158,93224,FELLOWS,CA
45159,93015,FILLMORE,CA
45160,93016,FILLMORE,CA
45161,93222,PINE MOUNTAIN CLUB,CA
45162,93222,FRAZIER PARK,CA
45163,93222,PINE MTN CLB,CA
45164,93225,FRAZIER PARK,CA
45165,91201,GLENDALE,CA
45166,91202,GLENDALE,CA
45167,91203,GLENDALE,CA
45168,91204,GLENDALE,CA
45169,91205,GLENDALE,CA
45170,91206,GLENDALE,CA
45171,91207,GLENDALE,CA
45172,91208,GLENDALE,CA
45173,91209,GLENDALE,CA
45174,91210,GLENDALE,CA
45175,91210,GLENDALE GALLERIA,CA
45176,91214,LA CRESCENTA,CA
45177,91214,GLENDALE,CA
45178,91221,GLENDALE,CA
45179,91222,GLENDALE,CA
45180,91224,LA CRESCENTA,CA
45181,91224,GLENDALE,CA
45182,91225,GLENDALE,CA
45183,91226,GLENDALE,CA
45184,93226,GLENNVILLE,CA
45185,93227,GOSHEN,CA
45186,93433,GROVER BEACH,CA
45187,93433,PISMO BEACH,CA
45188,93483,GROVER BEACH,CA
45189,93434,GUADALUPE,CA
45190,93230,HANFORD,CA
45191,93232,HANFORD,CA
45192,93234,HURON,CA
45193,93526,INDEPENDENCE,CA
45194,93526,ABERDEEN,CA
45195,93527,INYOKERN,CA
45196,93527,PEARSONVILLE,CA
45197,93542,LITTLE LAKE,CA
45198,93235,IVANHOE,CA
45199,93528,JOHANNESBURG,CA
45200,93554,RANDSBURG,CA
45201,93554,JOHANNESBURG,CA
45202,93554,GARLOCK,CA
45203,93558,RED MOUNTAIN,CA
45204,93558,JOHANNESBURG,CA
45205,93529,JUNE LAKE,CA
45206,93529,JUNE LAKE JUNCTION,CA
45207,93530,KEELER,CA
45208,93531,KEENE,CA
45209,93238,KERNVILLE,CA
45210,93238,RIVER KERN,CA
45211,93239,KETTLEMAN CITY,CA
45212,93239,KETTLEMAN CTY,CA
45213,91011,LA CANADA FLINTRIDGE,CA
45214,91011,FLINTRIDGE,CA
45215,91011,LA CANADA,CA
45216,91011,LA CANADA FLT,CA
45217,91012,LA CANADA FLINTRIDGE,CA
45218,91012,LA CANADA,CA
45219,91012,LA CANADA FLT,CA
45220,91023,MOUNT WILSON,CA
45221,93532,LAKE HUGHES,CA
45222,93532,ELIZABETH LAKE,CA
45223,93532,ELIZABETH LK,CA
45224,93532,LAKE ELIZABETH,CA
45225,93532,LEONA VALLEY,CA
45226,93532,SANDBERG,CA
45227,93532,THREE POINTS,CA
45228,93240,LAKE ISABELLA,CA
45229,93240,MOUNTAIN MESA,CA
45230,93241,LAMONT,CA
45231,93534,LANCASTER,CA
45232,93534,DEL SUR,CA
45233,93534,FAIRMONT,CA
45234,93534,HI VISTA,CA
45235,93534,LANE,CA
45236,93534,WILSONA GARDENS,CA
45237,93535,LANCASTER,CA
45238,93535,HI VISTA,CA
45239,93535,LAKE LA,CA
45240,93535,LAKE LOS ANGELES,CA
45241,93535,ROOSEVELT CORNER,CA
45242,93535,WILSONA GARDENS,CA
45243,93536,LANCASTER,CA
45244,93536,DEL SUR,CA
45245,93536,QUARTZ HILL,CA
45246,93536,FAIRMONT,CA
45247,93536,METLER VALLEY,CA
45248,93536,NEENACH,CA
45249,93539,LANCASTER,CA
45250,93584,LANCASTER,CA
45251,93586,LANCASTER,CA
45252,93586,QUARTZ HILL,CA
45253,93242,LATON,CA
45254,93243,LEBEC,CA
45255,93243,GORMAN,CA
45256,93541,LEE VINING,CA
45257,93541,MONO CITY,CA
45258,93541,MONO LAKE,CA
45259,93244,LEMON COVE,CA
45260,93245,LEMOORE,CA
45261,93245,LEMOORE NAS,CA
45262,93246,LEMOORE,CA
45263,93246,LEMOORE NAS,CA
45264,93246,LEMOORE NAVAL AIR STATION,CA
45265,93246,NAS LEMOORE,CA
45266,93246,US NAVAL AIR STATION,CA
45267,93247,LINDSAY,CA
45268,93247,CAIRNS CORNER,CA
45269,93247,TONYVILLE,CA
45270,93543,LITTLEROCK,CA
45271,93543,JUNIPER HILLS,CA
45272,93543,SUN VILLAGE,CA
45273,93544,LLANO,CA
45274,93544,CRYSTALAIRE,CA
45275,93436,LOMPOC,CA
45276,93436,VANDENBERG VILLAGE,CA
45277,93437,LOMPOC,CA
45278,93437,VAFB,CA
45279,93437,VANDENBERG AFB,CA
45280,93437,VANDENBRG AFB,CA
45281,93437,VANDENBERG AIR FORCE BASE,CA
45282,93438,LOMPOC,CA
45283,93545,LONE PINE,CA
45284,93545,ALABAMA HILLS,CA
45285,93545,DOLOMITE,CA
45286,93545,PANAMINT SPRINGS,CA
45287,93545,SWANSEA,CA
45288,93440,LOS ALAMOS,CA
45289,93441,LOS OLIVOS,CA
45290,93249,LOST HILLS,CA
45291,93250,MC FARLAND,CA
45292,93251,MC KITTRICK,CA
45293,93546,MAMMOTH LAKES,CA
45294,93546,CROWLEY LAKE,CA
45295,93546,TOMS PLACE,CA
45296,93546,LAKE MARY,CA
45297,93252,MARICOPA,CA
45298,93501,MOJAVE,CA
45299,93501,FREMONT VALLEY,CA
45300,93502,MOJAVE,CA
45301,93504,CALIFORNIA CITY,CA
45302,93504,CALIF CITY,CA
45303,93505,CALIFORNIA CITY,CA
45304,93505,CALIF CITY,CA
45305,93519,CANTIL,CA
45306,93519,MOJAVE,CA
45307,91016,MONROVIA,CA
45308,91017,MONROVIA,CA
45309,91020,MONTROSE,CA
45310,91021,MONTROSE,CA
45311,93020,MOORPARK,CA
45312,93021,MOORPARK,CA
45313,93442,MORRO BAY,CA
45314,93443,MORRO BAY,CA
45315,93254,NEW CUYAMA,CA
45316,93254,CUYAMA,CA
45317,93444,NIPOMO,CA
45318,91601,NORTH HOLLYWOOD,CA
45319,91601,N HOLLYWOOD,CA
45320,91601,TOLUCA TER,CA
45321,91601,TOLUCA TERRACE,CA
45322,91601,VALLEY VILLAGE,CA
45323,91601,VALLEY VLG,CA
45324,91602,NORTH HOLLYWOOD,CA
45325,91602,N HOLLYWOOD,CA
45326,91602,STUDIO CITY,CA
45327,91602,TOLUCA LAKE,CA
45328,91602,W TOLUCA LAKE,CA
45329,91602,WEST TOLUCA LAKE,CA
45330,91603,NORTH HOLLYWOOD,CA
45331,91603,N HOLLYWOOD,CA
45332,91604,STUDIO CITY,CA
45333,91604,N HOLLYWOOD,CA
45334,91604,NORTH HOLLYWOOD,CA
45335,91605,NORTH HOLLYWOOD,CA
45336,91605,N HOLLYWOOD,CA
45337,91606,NORTH HOLLYWOOD,CA
45338,91606,N HOLLYWOOD,CA
45339,91606,VALLEY GLEN,CA
45340,91606,VAN NUYS,CA
45341,91607,VALLEY VILLAGE,CA
45342,91607,N HOLLYWOOD,CA
45343,91607,NORTH HOLLYWOOD,CA
45344,91607,SHERMAN VILLAGE,CA
45345,91607,SHERMAN VLG,CA
45346,91607,STUDIO CITY,CA
45347,91607,VALLEY VLG,CA
45348,91608,UNIVERSAL CITY,CA
45349,91608,N HOLLYWOOD,CA
45350,91608,NORTH HOLLYWOOD,CA
45351,91608,UNIVERSAL CTY,CA
45352,91609,NORTH HOLLYWOOD,CA
45353,91609,N HOLLYWOOD,CA
45354,91610,TOLUCA LAKE,CA
45355,91610,N HOLLYWOOD,CA
45356,91610,NORTH HOLLYWOOD,CA
45357,91611,NORTH HOLLYWOOD,CA
45358,91611,N HOLLYWOOD,CA
45359,91611,US PURCHASING EXCHANGE,CA
45360,91612,NORTH HOLLYWOOD,CA
45361,91612,N HOLLYWOOD,CA
45362,91612,US PURCHASING EXCHANGE,CA
45363,91614,STUDIO CITY,CA
45364,91614,N HOLLYWOOD,CA
45365,91614,NORTH HOLLYWOOD,CA
45366,91615,NORTH HOLLYWOOD,CA
45367,91615,N HOLLYWOOD,CA
45368,91616,NORTH HOLLYWOOD,CA
45369,91616,N HOLLYWOOD,CA
45370,91617,VALLEY VILLAGE,CA
45371,91617,N HOLLYWOOD,CA
45372,91617,NORTH HOLLYWOOD,CA
45373,91617,VALLEY VLG,CA
45374,91618,NORTH HOLLYWOOD,CA
45375,91618,N HOLLYWOOD,CA
45376,91618,UNIVERSAL CTY,CA
45377,91324,NORTHRIDGE,CA
45378,91325,NORTHRIDGE,CA
45379,91326,PORTER RANCH,CA
45380,91326,NORTHRIDGE,CA
45381,91327,NORTHRIDGE,CA
45382,91327,PORTER RANCH,CA
45383,91328,NORTHRIDGE,CA
45384,91329,NORTHRIDGE,CA
45385,91329,J B LANSING CO,CA
45386,91330,NORTHRIDGE,CA
45387,91330,CALIFORNIA STATE UNIVERSITY,CA
45388,93022,OAK VIEW,CA
45389,93445,OCEANO,CA
45390,93475,OCEANO,CA
45391,93023,OJAI,CA
45392,93023,MEINERS OAKS,CA
45393,93024,OJAI,CA
45394,93549,OLANCHA,CA
45395,93549,CARTAGO,CA
45396,93255,ONYX,CA
45397,93030,OXNARD,CA
45398,93031,OXNARD,CA
45399,93032,OXNARD,CA
45400,93033,OXNARD,CA
45401,93034,OXNARD,CA
45402,93035,OXNARD,CA
45403,93036,OXNARD,CA
45404,91331,PACOIMA,CA
45405,91331,ARLETA,CA
45406,91331,HANSEN HILLS,CA
45407,91331,LAKEVIEW TERRACE,CA
45408,91331,LOS ANGELES,CA
45409,91333,PACOIMA,CA
45410,91334,PACOIMA,CA
45411,91334,ARLETA,CA
45412,93550,PALMDALE,CA
45413,93550,LAKE LA,CA
45414,93550,LAKE LOS ANGELES,CA
45415,93551,PALMDALE,CA
45416,93551,CITY RANCH,CA
45417,93551,LEONA VALLEY,CA
45418,93551,QUARTZ HILL,CA
45419,93551,LANCASTER,CA
45420,93552,PALMDALE,CA
45421,93590,PALMDALE,CA
45422,93591,PALMDALE,CA
45423,93591,LAKE LA,CA
45424,93591,LAKE LOS ANGELES,CA
45425,93599,PALMDALE,CA
45426,93599,LOCKHEED ADVANCED DEV CO,CA
45427,91101,PASADENA,CA
45428,91102,PASADENA,CA
45429,91103,PASADENA,CA
45430,91104,PASADENA,CA
45431,91105,PASADENA,CA
45432,91106,PASADENA,CA
45433,91107,PASADENA,CA
45434,91108,SAN MARINO,CA
45435,91108,PASADENA,CA
45436,91109,PASADENA,CA
45437,91110,PASADENA,CA
45438,91110,SHARED FIRM ZIP CODE,CA
45439,91114,PASADENA,CA
45440,91115,PASADENA,CA
45441,91116,PASADENA,CA
45442,91117,PASADENA,CA
45443,91118,SAN MARINO,CA
45444,91118,PASADENA,CA
45445,91121,PASADENA,CA
45446,91121,AVON PRODUCTS,CA
45447,91123,PASADENA,CA
45448,91123,AMBASSADOR COLLEGE,CA
45449,91124,PASADENA,CA
45450,91124,RALPH M PARSONS CO,CA
45451,91125,PASADENA,CA
45452,91125,CAL TECH,CA
45453,91126,PASADENA,CA
45454,91126,CAL TECH,CA
45455,91129,PASADENA,CA
45456,91129,AMBASSADOR I C FOUNDATION,CA
45457,91182,PASADENA,CA
45458,91182,FULLER THEOLOGICAL SEMINARY,CA
45459,91184,PASADENA,CA
45460,91184,TOURNAMENT OF ROSES ASSOC,CA
45461,91185,PASADENA,CA
45462,91185,MELLON REGIONAL LOCKBOX NETW,CA
45463,91188,PASADENA,CA
45464,91188,KAISER FOUNDATION HEALTH,CA
45465,91189,PASADENA,CA
45466,91189,J P MORGAN,CA
45467,91199,PASADENA,CA
45468,91199,CITY NATIONAL BANK,CA
45469,93446,PASO ROBLES,CA
45470,93446,ADELAIDE,CA
45471,93446,HERITAGE RANCH,CA
45472,93446,HERITAGE RNCH,CA
45473,93446,LAKE NACIMIENTO,CA
45474,93446,NACIMIENTO LAKE,CA
45475,93447,PASO ROBLES,CA
45476,93553,PEARBLOSSOM,CA
45477,93553,JUNIPER HILLS,CA
45478,93563,VALYERMO,CA
45479,93563,PEARBLOSSOM,CA
45480,93040,PIRU,CA
45481,93448,PISMO BEACH,CA
45482,93448,SHELL BEACH,CA
45483,93449,PISMO BEACH,CA
45484,93449,SHELL BEACH,CA
45485,93256,PIXLEY,CA
45486,93257,PORTERVILLE,CA
45487,93257,POPLAR,CA
45488,93257,WOODVILLE,CA
45489,93258,PORTERVILLE,CA
45490,93041,PORT HUENEME,CA
45491,93041,POINT MUGU NAWC,CA
45492,93041,PT MUGU NAWC,CA
45493,93041,NAVAL BASE VENTURA COUNTY,CA
45494,93042,POINT MUGU NAWC,CA
45495,93042,PORT HUENEME,CA
45496,93042,PT MUGU NAWC,CA
45497,93042,NAVAL AIR WARFARE CTR,CA
45498,93042,NAVAL BASE VENTURA COUNTY,CA
45499,93043,PORT HUENEME CBC BASE,CA
45500,93043,PORT HUENEME,CA
45501,93043,PRT HUENEME,CA
45502,93043,NAVAL BASE VENTURA COUNTY,CA
45503,93043,PORT HUENEME NAVAL CONSTRUCT,CA
45504,93044,PORT HUENEME,CA
45505,93044,NAVAL BASE VENTURA COUNTY,CA
45506,93044,PORT HUENEME CBC BASE,CA
45507,93260,POSEY,CA
45508,93260,BALANCE ROCK,CA
45509,91335,RESEDA,CA
45510,91335,TARZANA,CA
45511,91335,ENCINO,CA
45512,91335,LOS ANGELES,CA
45513,91337,RESEDA,CA
45514,93261,RICHGROVE,CA
45515,93555,RIDGECREST,CA
45516,93555,CHINA LAKE,CA
45517,93555,CHINA LAKE NWC,CA
45518,93556,RIDGECREST,CA
45519,93560,ROSAMOND,CA
45520,93560,WILLOW SPGS,CA
45521,93560,WILLOW SPRINGS,CA
45522,93560,TROPICO VILLAGE,CA
45523,93450,SAN ARDO,CA
45524,91340,SAN FERNANDO,CA
45525,91341,SAN FERNANDO,CA
45526,91342,SYLMAR,CA
45527,91342,KAGEL CANYON,CA
45528,91342,LAKE VIEW TER,CA
45529,91342,LAKE VIEW TERRACE,CA
45530,91343,NORTH HILLS,CA
45531,91343,NORTHRIDGE,CA
45532,91343,SEPULVEDA,CA
45533,91344,GRANADA HILLS,CA
45534,91344,SAN FERNANDO,CA
45535,91345,MISSION HILLS,CA
45536,91345,SAN FERNANDO,CA
45537,91346,MISSION HILLS,CA
45538,91346,SAN FERNANDO,CA
45539,91392,SYLMAR,CA
45540,91393,NORTH HILLS,CA
45541,91393,SEPULVEDA,CA
45542,91394,GRANADA HILLS,CA
45543,91395,MISSION HILLS,CA
45544,93401,SAN LUIS OBISPO,CA
45545,93401,SN LUIS OBISP,CA
45546,93402,LOS OSOS,CA
45547,93402,SAN LUIS OBISPO,CA
45548,93402,SN LUIS OBISP,CA
45549,93402,BAYWOOD PARK,CA
45550,93403,SAN LUIS OBISPO,CA
45551,93403,SN LUIS OBISP,CA
45552,93405,SAN LUIS OBISPO,CA
45553,93405,SN LUIS OBISP,CA
45554,93406,SAN LUIS OBISPO,CA
45555,93406,SN LUIS OBISP,CA
45556,93407,SAN LUIS OBISPO,CA
45557,93407,CAL POLY SLO,CA
45558,93407,CAL POLY UNIVERSITY,CA
45559,93407,SN LUIS OBISP,CA
45560,93408,SAN LUIS OBISPO,CA
45561,93408,SN LUIS OBISP,CA
45562,93408,SLO COUNTY GOVT CTR,CA
45563,93409,SAN LUIS OBISPO,CA
45564,93409,SN LUIS OBISP,CA
45565,93409,CALIFORNIA MENS COLONY SLO,CA
45566,93410,SAN LUIS OBISPO,CA
45567,93410,SN LUIS OBISP,CA
45568,93410,CAL POLY SLO,CA
45569,93410,CAL POLY STUDENT DORMS,CA
45570,93412,LOS OSOS,CA
45571,93412,SAN LUIS OBISPO,CA
45572,93412,SN LUIS OBISP,CA
45573,93451,SAN MIGUEL,CA
45574,93451,PARKFIELD,CA
45575,93451,CAMP ROBERTS,CA
45576,93452,SAN SIMEON,CA
45577,93452,RAGGED POINT,CA
45578,93101,SANTA BARBARA,CA
45579,93102,SANTA BARBARA,CA
45580,93103,SANTA BARBARA,CA
45581,93105,SANTA BARBARA,CA
45582,93106,SANTA BARBARA,CA
45583,93106,UCSB,CA
45584,93106,UNIV OF CAL SANTA BARBARA,CA
45585,93106,UNIV OF CA SANTA BARBARA,CA
45586,93107,SANTA BARBARA,CA
45587,93107,UCSB STUDENT DORM BOXES,CA
45588,93108,SANTA BARBARA,CA
45589,93108,MONTECITO,CA
45590,93109,SANTA BARBARA,CA
45591,93110,SANTA BARBARA,CA
45592,93110,GOLETA,CA
45593,93111,SANTA BARBARA,CA
45594,93111,GOLETA,CA
45595,93116,GOLETA,CA
45596,93116,SANTA BARBARA,CA
45597,93117,GOLETA,CA
45598,93117,GAVIOTA,CA
45599,93117,ISLA VISTA,CA
45600,93117,SANTA BARBARA,CA
45601,93118,GOLETA,CA
45602,93118,SANTA BARBARA,CA
45603,93120,SANTA BARBARA,CA
45604,93121,SANTA BARBARA,CA
45605,93130,SANTA BARBARA,CA
45606,93140,SANTA BARBARA,CA
45607,93150,SANTA BARBARA,CA
45608,93150,MONTECITO,CA
45609,93160,SANTA BARBARA,CA
45610,93160,GOLETA,CA
45611,93190,SANTA BARBARA,CA
45612,93199,GOLETA,CA
45613,93199,SANTA BARBARA,CA
45614,93199,SANTA BARBARA P & D CTR,CA
45615,91310,CASTAIC,CA
45616,91310,SANTA CLARITA,CA
45617,91321,NEWHALL,CA
45618,91321,SANTA CLARITA,CA
45619,91321,FRIENDLY VALLEY,CA
45620,91322,NEWHALL,CA
45621,91322,SANTA CLARITA,CA
45622,91350,SANTA CLARITA,CA
45623,91350,AGUA DULCE,CA
45624,91350,SAUGUS,CA
45625,91350,BOUQUET CANYON,CA
45626,91350,GREEN VALLEY,CA
45627,91350,MINT CANYON,CA
45628,91350,SLEEPY VALLEY,CA
45629,91351,CANYON COUNTRY,CA
45630,91351,CANYON CNTRY,CA
45631,91351,SANTA CLARITA,CA
45632,91354,VALENCIA,CA
45633,91354,SANTA CLARITA,CA
45634,91355,VALENCIA,CA
45635,91355,SANTA CLARITA,CA
45636,91380,SANTA CLARITA,CA
45637,91380,VALENCIA,CA
45638,91381,STEVENSON RANCH,CA
45639,91381,NEWHALL,CA
45640,91381,SANTA CLARITA,CA
45641,91381,STEVENSON RNH,CA
45642,91381,VALENCIA,CA
45643,91382,SANTA CLARITA,CA
45644,91382,NEWHALL,CA
45645,91383,SANTA CLARITA,CA
45646,91384,CASTAIC,CA
45647,91384,SANTA CLARITA,CA
45648,91384,VAL VERDE,CA
45649,91385,VALENCIA,CA
45650,91385,SANTA CLARITA,CA
45651,91386,CANYON COUNTRY,CA
45652,91386,CANYON CNTRY,CA
45653,91386,SANTA CLARITA,CA
45654,91387,CANYON COUNTRY,CA
45655,91387,CANYON CNTRY,CA
45656,91387,SANTA CLARITA,CA
45657,91387,FAIR OAKS RANCH,CA
45658,91390,SANTA CLARITA,CA
45659,91390,AGUA DULCE,CA
45660,91390,CANYON CNTRY,CA
45661,91390,CANYON COUNTRY,CA
45662,91390,GREEN VALLEY,CA
45663,91390,MINT CANYON,CA
45664,91390,SAUGUS,CA
45665,91390,SLEEPY VALLEY,CA
45666,93453,SANTA MARGARITA,CA
45667,93453,SANTA MARGAR,CA
45668,93453,CALIFORNIA VALLEY,CA
45669,93453,POZO,CA
45670,93453,SN MARGARITA,CA
45671,93454,SANTA MARIA,CA
45672,93454,RANCHO SUEY,CA
45673,93454,GAREY,CA
45674,93454,SISQUOC,CA
45675,93455,SANTA MARIA,CA
45676,93455,ORCUTT,CA
45677,93456,SANTA MARIA,CA
45678,93457,SANTA MARIA,CA
45679,93457,ORCUTT,CA
45680,93458,SANTA MARIA,CA
45681,93060,SANTA PAULA,CA
45682,93061,SANTA PAULA,CA
45683,93460,SANTA YNEZ,CA
45684,93262,SEQUOIA NATIONAL PARK,CA
45685,93262,SEQ NATL PK,CA
45686,93263,SHAFTER,CA
45687,93263,BAKERSFIELD,CA
45688,93461,SHANDON,CA
45689,93461,CHOLAME,CA
45690,91024,SIERRA MADRE,CA
45691,91025,SIERRA MADRE,CA
45692,93062,SIMI VALLEY,CA
45693,93063,SIMI VALLEY,CA
45694,93063,SANTA SUSANA,CA
45695,93064,BRANDEIS,CA
45696,93064,SIMI VALLEY,CA
45697,93065,SIMI VALLEY,CA
45698,93094,SIMI VALLEY,CA
45699,93099,SIMI VALLEY,CA
45700,93099,FARMERS INS,CA
45701,93463,SOLVANG,CA
45702,93463,BALLARD,CA
45703,93464,SOLVANG,CA
45704,93066,SOMIS,CA
45705,91030,SOUTH PASADENA,CA
45706,91030,S PASADENA,CA
45707,91031,SOUTH PASADENA,CA
45708,91031,S PASADENA,CA
45709,93208,CAMP NELSON,CA
45710,93208,SPRINGVILLE,CA
45711,93265,SPRINGVILLE,CA
45712,93266,STRATFORD,CA
45713,93267,STRATHMORE,CA
45714,93067,SUMMERLAND,CA
45715,91040,SUNLAND,CA
45716,91040,SHADOW HILLS,CA
45717,91041,SUNLAND,CA
45718,91352,SUN VALLEY,CA
45719,91352,LA TUNA CANYON,CA
45720,91352,RANCHO LA TUNA CANYON,CA
45721,91352,SHADOW HILLS,CA
45722,91353,SUN VALLEY,CA
45723,93268,TAFT,CA
45724,91356,TARZANA,CA
45725,91357,TARZANA,CA
45726,93561,TEHACHAPI,CA
45727,93561,BEAR VALLEY SPRINGS,CA
45728,93561,BEAR VLY SPGS,CA
45729,93561,GOLDEN HILLS,CA
45730,93561,MONOLITH,CA
45731,93561,STALLION SPGS,CA
45732,93561,STALLION SPRINGS,CA
45733,93561,ALPINE FOREST,CA
45734,93561,CALIFORNIA CORRECTIONAL INST,CA
45735,93561,SAND CANYON,CA
45736,93581,TEHACHAPI,CA
45737,93465,TEMPLETON,CA
45738,93270,TERRA BELLA,CA
45739,91319,NEWBURY PARK,CA
45740,91319,THOUSAND OAKS,CA
45741,91320,NEWBURY PARK,CA
45742,91320,THOUSAND OAKS,CA
45743,91320,DOS VIENTOS RANCH,CA
45744,91358,THOUSAND OAKS,CA
45745,91359,WESTLAKE VILLAGE,CA
45746,91359,THOUSAND OAKS,CA
45747,91359,WESTLAKE VLG,CA
45748,91360,THOUSAND OAKS,CA
45749,91361,WESTLAKE VILLAGE,CA
45750,91361,HIDDEN VALLEY,CA
45751,91361,LAKE SHERWOOD,CA
45752,91361,THOUSAND OAKS,CA
45753,91361,WESTLAKE VLG,CA
45754,91362,THOUSAND OAKS,CA
45755,91362,WESTLAKE VILLAGE,CA
45756,91362,WESTLAKE VLG,CA
45757,93237,KAWEAH,CA
45758,93271,THREE RIVERS,CA
45759,93272,TIPTON,CA
45760,93562,TRONA,CA
45761,93562,ARGUS,CA
45762,93562,BALLARAT,CA
45763,93562,PIONEER POINT,CA
45764,93592,TRONA,CA
45765,91042,TUJUNGA,CA
45766,91043,TUJUNGA,CA
45767,93274,TULARE,CA
45768,93275,TULARE,CA
45769,93276,TUPMAN,CA
45770,91316,ENCINO,CA
45771,91316,VAN NUYS,CA
45772,91401,VAN NUYS,CA
45773,91401,SHERMAN OAKS,CA
45774,91401,VALLEY GLEN,CA
45775,91402,PANORAMA CITY,CA
45776,91402,VAN NUYS,CA
45777,91403,SHERMAN OAKS,CA
45778,91403,VAN NUYS,CA
45779,91404,VAN NUYS,CA
45780,91405,VAN NUYS,CA
45781,91405,VALLEY GLEN,CA
45782,91406,VAN NUYS,CA
45783,91406,LAKE BALBOA,CA
45784,91407,VAN NUYS,CA
45785,91408,VAN NUYS,CA
45786,91409,VAN NUYS,CA
45787,91410,VAN NUYS,CA
45788,91411,VAN NUYS,CA
45789,91411,SHERMAN OAKS,CA
45790,91412,PANORAMA CITY,CA
45791,91412,VAN NUYS,CA
45792,91413,SHERMAN OAKS,CA
45793,91413,VAN NUYS,CA
45794,91416,ENCINO,CA
45795,91416,VAN NUYS,CA
45796,91423,SHERMAN OAKS,CA
45797,91423,VAN NUYS,CA
45798,91426,ENCINO,CA
45799,91426,VAN NUYS,CA
45800,91436,ENCINO,CA
45801,91436,VAN NUYS,CA
45802,91470,VAN NUYS,CA
45803,91470,BLUE CROSS OF SO CALIF,CA
45804,91482,VAN NUYS,CA
45805,91482,DELUXE CHECK,CA
45806,91495,SHERMAN OAKS,CA
45807,91495,VAN NUYS,CA
45808,91495,U S PURCHASING EXCHANGE,CA
45809,91496,VAN NUYS,CA
45810,91496,U S PURCHASING CORP,CA
45811,91499,VAN NUYS,CA
45812,91499,BUSINESS REPLY,CA
45813,93001,VENTURA,CA
45814,93001,CASITAS SPRINGS,CA
45815,93001,LA CONCHITA,CA
45816,93001,SAN BUENAVENTURA,CA
45817,93002,VENTURA,CA
45818,93003,VENTURA,CA
45819,93003,SAN BUENAVENTURA,CA
45820,93004,VENTURA,CA
45821,93004,SAN BUENAVENTURA,CA
45822,93004,SATICOY,CA
45823,93005,VENTURA,CA
45824,93006,VENTURA,CA
45825,93007,VENTURA,CA
45826,93009,VENTURA,CA
45827,93009,VENTURA COUNTY GOV,CA
45828,91046,VERDUGO CITY,CA
45829,93277,VISALIA,CA
45830,93278,VISALIA,CA
45831,93279,VISALIA,CA
45832,93290,VISALIA,CA
45833,93291,VISALIA,CA
45834,93292,VISALIA,CA
45835,93280,WASCO,CA
45836,93283,WELDON,CA
45837,93285,WOFFORD HEIGHTS,CA
45838,93285,WOFFORD HTS,CA
45839,93286,WOODLAKE,CA
45840,93286,ELDERWOOD,CA
45841,91302,CALABASAS,CA
45842,91302,HIDDEN HILLS,CA
45843,91302,MONTE NIDO,CA
45844,91302,WOODLAND HILLS,CA
45845,91302,WOODLAND HLS,CA
45846,91364,WOODLAND HILLS,CA
45847,91364,WOODLAND HLS,CA
45848,91365,WOODLAND HILLS,CA
45849,91365,WOODLAND HLS,CA
45850,91367,WOODLAND HILLS,CA
45851,91367,WOODLAND HLS,CA
45852,91371,WOODLAND HILLS,CA
45853,91371,WOODLAND HLS,CA
45854,91371,PIERCE COLLEGE,CA
45855,91372,CALABASAS,CA
45856,91372,WOODLAND HILLS,CA
45857,91372,WOODLAND HLS,CA
45858,93287,WOODY,CA
45859,92301,ADELANTO,CA
45860,92301,EL MIRAGE,CA
45861,92536,AGUANGA,CA
45862,92536,HOLCOMB VILLAGE,CA
45863,91901,ALPINE,CA
45864,91903,ALPINE,CA
45865,92304,AMBOY,CA
45866,92304,CADIZ,CA
45867,92305,ANGELUS OAKS,CA
45868,92305,SEVEN OAKS,CA
45869,92539,ANZA,CA
45870,92307,APPLE VALLEY,CA
45871,92308,APPLE VALLEY,CA
45872,92308,JESS RANCH,CA
45873,92309,BAKER,CA
45874,92309,KELSO,CA
45875,92364,NIPTON,CA
45876,92364,BAKER,CA
45877,92366,MOUNTAIN PASS,CA
45878,92220,BANNING,CA
45879,92222,BARD,CA
45880,92310,FORT IRWIN,CA
45881,92310,BARSTOW,CA
45882,92311,BARSTOW,CA
45883,92311,HODGE,CA
45884,92312,BARSTOW,CA
45885,92223,BEAUMONT,CA
45886,92223,CHERRY VALLEY,CA
45887,92314,BIG BEAR CITY,CA
45888,92386,SUGARLOAF,CA
45889,92386,BIG BEAR CITY,CA
45890,92315,BIG BEAR LAKE,CA
45891,92315,BIG BEAR,CA
45892,92316,BLOOMINGTON,CA
45893,92316,CRESTMORE,CA
45894,92317,BLUE JAY,CA
45895,92225,BLYTHE,CA
45896,92225,RIPLEY,CA
45897,92225,MESA VERDE,CA
45898,92226,BLYTHE,CA
45899,92280,VIDAL,CA
45900,92280,BLYTHE,CA
45901,92280,VIDAL JUNCTION,CA
45902,91902,BONITA,CA
45903,91908,BONITA,CA
45904,92003,BONSALL,CA
45905,92004,BORREGO SPRINGS,CA
45906,92004,BORREGO SPGS,CA
45907,91905,BOULEVARD,CA
45908,92227,BRAWLEY,CA
45909,92318,BRYN MAWR,CA
45910,92230,CABAZON,CA
45911,92282,WHITEWATER,CA
45912,92282,CABAZON,CA
45913,92231,CALEXICO,CA
45914,92231,MOUNT SIGNAL,CA
45915,92232,CALEXICO,CA
45916,92320,CALIMESA,CA
45917,92233,CALIPATRIA,CA
45918,91906,CAMPO,CA
45919,92008,CARLSBAD,CA
45920,92009,CARLSBAD,CA
45921,92009,LA COSTA,CA
45922,92010,CARLSBAD,CA
45923,92011,CARLSBAD,CA
45924,92011,LA COSTA,CA
45925,92011,RANCHO LA COSTA,CA
45926,92013,CARLSBAD,CA
45927,92018,CARLSBAD,CA
45928,92234,CATHEDRAL CITY,CA
45929,92234,CATHEDRAL CTY,CA
45930,92235,CATHEDRAL CITY,CA
45931,92235,CATHEDRAL CTY,CA
45932,92321,CEDAR GLEN,CA
45933,91909,CHULA VISTA,CA
45934,91910,CHULA VISTA,CA
45935,91911,CHULA VISTA,CA
45936,91912,CHULA VISTA,CA
45937,91913,CHULA VISTA,CA
45938,91914,CHULA VISTA,CA
45939,91915,CHULA VISTA,CA
45940,91921,CHULA VISTA,CA
45941,92323,CIMA,CA
45942,92323,BAKER,CA
45943,92236,COACHELLA,CA
45944,92313,GRAND TERRACE,CA
45945,92313,COLTON,CA
45946,92324,COLTON,CA
45947,92324,GRAND TERRACE,CA
45948,92322,CEDARPINES PARK,CA
45949,92322,CEDARPINES PK,CA
45950,92322,CEDAR PINES PK,CA
45951,92325,CRESTLINE,CA
45952,92325,LAKE GREGORY,CA
45953,92325,VALLEY OF ENCHANTMENT,CA
45954,92326,CREST PARK,CA
45955,92327,DAGGETT,CA
45956,92328,DEATH VALLEY,CA
45957,92328,DEATH VALLEY JCT,CA
45958,92328,DEATH VALLEY JUNCTION,CA
45959,92328,STOVE PIPE WELLS,CA
45960,92014,DEL MAR,CA
45961,91916,DESCANSO,CA
45962,92239,DESERT CENTER,CA
45963,92239,EAGLE MOUNTAIN,CA
45964,92239,EAGLE MTN,CA
45965,92240,DESERT HOT SPRINGS,CA
45966,92240,DSRT HOT SPGS,CA
45967,92241,DESERT HOT SPRINGS,CA
45968,92241,DSRT HOT SPGS,CA
45969,92241,DESERT EDGE,CA
45970,92241,SKY VALLEY,CA
45971,91917,DULZURA,CA
45972,92242,EARP,CA
45973,92242,BIG RIVER,CA
45974,92019,EL CAJON,CA
45975,92020,EL CAJON,CA
45976,92021,EL CAJON,CA
45977,92021,BOSTONIA,CA
45978,92021,CREST,CA
45979,92022,EL CAJON,CA
45980,92243,EL CENTRO,CA
45981,92244,EL CENTRO,CA
45982,92007,CARDIFF BY THE SEA,CA
45983,92007,CARDIFF,CA
45984,92023,ENCINITAS,CA
45985,92024,ENCINITAS,CA
45986,92024,LEUCADIA,CA
45987,92024,OLIVENHAIN,CA
45988,92025,ESCONDIDO,CA
45989,92026,ESCONDIDO,CA
45990,92027,ESCONDIDO,CA
45991,92029,ESCONDIDO,CA
45992,92030,ESCONDIDO,CA
45993,92033,ESCONDIDO,CA
45994,92046,ESCONDIDO,CA
45995,92332,ESSEX,CA
45996,92332,GOFFS,CA
45997,92028,FALLBROOK,CA
45998,92028,RAINBOW,CA
45999,92088,FALLBROOK,CA
46000,92333,FAWNSKIN,CA
46001,92331,FONTANA,CA
46002,92334,FONTANA,CA
46003,92335,FONTANA,CA
46004,92336,FONTANA,CA
46005,92337,FONTANA,CA
46006,92339,FOREST FALLS,CA
46007,92339,FALLSVALE,CA
46008,92249,HEBER,CA
46009,92342,HELENDALE,CA
46010,92342,SILVER LAKES,CA
46011,92543,HEMET,CA
46012,92544,HEMET,CA
46013,92545,HEMET,CA
46014,92546,HEMET,CA
46015,92340,HESPERIA,CA
46016,92344,HESPERIA,CA
46017,92344,OAK HILLS,CA
46018,92345,HESPERIA,CA
46019,92346,HIGHLAND,CA
46020,92347,HINKLEY,CA
46021,92347,LOCKHART,CA
46022,92250,HOLTVILLE,CA
46023,92250,BONDS CORNER,CA
46024,92548,HOMELAND,CA
46025,92549,IDYLLWILD,CA
46026,92251,IMPERIAL,CA
46027,91932,IMPERIAL BEACH,CA
46028,91932,IMPERIAL BCH,CA
46029,91933,IMPERIAL BEACH,CA
46030,91933,IMPERIAL BCH,CA
46031,92201,INDIO,CA
46032,92201,CHIRIACO SMT,CA
46033,92201,CHIRIACO SUMMIT,CA
46034,92202,INDIO,CA
46035,92203,INDIO,CA
46036,92203,BERMUDA DUNES,CA
46037,91934,JACUMBA,CA
46038,91935,JAMUL,CA
46039,92252,JOSHUA TREE,CA
46040,92036,JULIAN,CA
46041,92037,LA JOLLA,CA
46042,92038,LA JOLLA,CA
46043,92039,LA JOLLA,CA
46044,92092,LA JOLLA,CA
46045,92092,UCSB,CA
46046,92092,UCSD,CA
46047,92093,LA JOLLA,CA
46048,92093,UCSB,CA
46049,92093,UCSD,CA
46050,92352,LAKE ARROWHEAD,CA
46051,92352,LK ARROWHEAD,CA
46052,92530,LAKE ELSINORE,CA
46053,92530,LK ELSINORE,CA
46054,92531,LAKE ELSINORE,CA
46055,92531,LK ELSINORE,CA
46056,92532,LAKE ELSINORE,CA
46057,92532,LK ELSINORE,CA
46058,92040,LAKESIDE,CA
46059,91941,LA MESA,CA
46060,91942,LA MESA,CA
46061,91943,LA MESA,CA
46062,91944,LA MESA,CA
46063,92247,LA QUINTA,CA
46064,92248,LA QUINTA,CA
46065,92253,LA QUINTA,CA
46066,91945,LEMON GROVE,CA
46067,91946,LEMON GROVE,CA
46068,92350,LOMA LINDA,CA
46069,92350,LOMA LINDA UNIVERSITY,CA
46070,92354,LOMA LINDA,CA
46071,92354,NORTH LOMA LINDA,CA
46072,92357,LOMA LINDA,CA
46073,92357,VETERANS' HOSPITAL,CA
46074,92356,LUCERNE VALLEY,CA
46075,92356,LUCERNE VLY,CA
46076,92358,LYTLE CREEK,CA
46077,92254,MECCA,CA
46078,92254,NORTH SHORE,CA
46079,92359,MENTONE,CA
46080,92359,MOUNTAIN HOME VILLAGE,CA
46081,92551,MORENO VALLEY,CA
46082,92552,MORENO VALLEY,CA
46083,92553,MORENO VALLEY,CA
46084,92554,MORENO VALLEY,CA
46085,92555,MORENO VALLEY,CA
46086,92555,RANCHO BELAGO,CA
46087,92556,MORENO VALLEY,CA
46088,92557,MORENO VALLEY,CA
46089,92256,MORONGO VALLEY,CA
46090,92256,MORONGO VLY,CA
46091,92561,MOUNTAIN CENTER,CA
46092,92561,MOUNTAIN CTR,CA
46093,92561,PINYON PINES,CA
46094,91948,MOUNT LAGUNA,CA
46095,92562,MURRIETA,CA
46096,92562,MURRIETA HOT SPRINGS,CA
46097,92563,MURRIETA,CA
46098,92563,MURRIETA HOT SPRINGS,CA
46099,92564,MURRIETA,CA
46100,92564,MURRIETA HOT SPRINGS,CA
46101,91947,LINCOLN ACRES,CA
46102,91950,NATIONAL CITY,CA
46103,91951,NATIONAL CITY,CA
46104,92363,NEEDLES,CA
46105,92363,CHEMEHUEVI,CA
46106,92363,CHEMEHUEVI VALLEY,CA
46107,92363,HAVASU LAKE,CA
46108,92338,LUDLOW,CA
46109,92338,NEWBERRY SPGS,CA
46110,92338,NEWBERRY SPRINGS,CA
46111,92365,NEWBERRY SPRINGS,CA
46112,92365,NEWBERRY SPGS,CA
46113,92257,NILAND,CA
46114,92257,BOMBAY BEACH,CA
46115,92258,NORTH PALM SPRINGS,CA
46116,92258,N PALM SPGS,CA
46117,92258,N PALM SPRINGS,CA
46118,92258,NO PALM SPRINGS,CA
46119,92567,NUEVO,CA
46120,92567,LAKEVIEW,CA
46121,92049,OCEANSIDE,CA
46122,92051,OCEANSIDE,CA
46123,92052,OCEANSIDE,CA
46124,92054,OCEANSIDE,CA
46125,92054,CAMP PENDLETON,CA
46126,92054,CMP PENDLETON,CA
46127,92055,CAMP PENDLETON,CA
46128,92055,CMP PENDLETON,CA
46129,92055,OCEANSIDE,CA
46130,92055,MARINE CORP BASE,CA
46131,92056,OCEANSIDE,CA
46132,92057,OCEANSIDE,CA
46133,92058,OCEANSIDE,CA
46134,92068,SAN LUIS REY,CA
46135,92259,OCOTILLO,CA
46136,92368,ORO GRANDE,CA
46137,92210,INDIAN WELLS,CA
46138,92210,PALM DESERT,CA
46139,92211,PALM DESERT,CA
46140,92255,PALM DESERT,CA
46141,92260,PALM DESERT,CA
46142,92261,PALM DESERT,CA
46143,92262,PALM SPRINGS,CA
46144,92262,BARONA RANCHERIA,CA
46145,92262,PALM SPRINGS MUNICIPAL AIRPO,CA
46146,92262,SMOKE TREE,CA
46147,92263,PALM SPRINGS,CA
46148,92264,PALM SPRINGS,CA
46149,92060,PALOMAR MOUNTAIN,CA
46150,92060,PALOMAR MTN,CA
46151,92266,PALO VERDE,CA
46152,92267,PARKER DAM,CA
46153,92267,BLACK MEADOW LANDING,CA
46154,92369,PATTON,CA
46155,92059,PALA,CA
46156,92061,PAUMA VALLEY,CA
46157,92061,PALA,CA
46158,92570,PERRIS,CA
46159,92571,PERRIS,CA
46160,92572,PERRIS,CA
46161,92599,PERRIS,CA
46162,92599,STARCREST OF CAL,CA
46163,92329,PHELAN,CA
46164,92371,PHELAN,CA
46165,91931,GUATAY,CA
46166,91962,PINE VALLEY,CA
46167,92372,PINON HILLS,CA
46168,92268,PIONEERTOWN,CA
46169,92268,RIMROCK,CA
46170,91963,POTRERO,CA
46171,92064,POWAY,CA
46172,92074,POWAY,CA
46173,92065,RAMONA,CA
46174,92270,RANCHO MIRAGE,CA
46175,92067,RANCHO SANTA FE,CA
46176,92067,RCHO SANTA FE,CA
46177,92091,RANCHO SANTA FE,CA
46178,92091,RCHO SANTA FE,CA
46179,92373,REDLANDS,CA
46180,92373,MARIGOLD,CA
46181,92373,SMILEY HEIGHTS,CA
46182,92374,REDLANDS,CA
46183,92375,REDLANDS,CA
46184,92376,RIALTO,CA
46185,92377,RIALTO,CA
46186,92378,RIMFOREST,CA
46187,92501,RIVERSIDE,CA
46188,92502,RIVERSIDE,CA
46189,92503,RIVERSIDE,CA
46190,92503,ARLINGTON,CA
46191,92504,RIVERSIDE,CA
46192,92504,CASA BLANCA,CA
46193,92504,WOODCREST,CA
46194,92505,RIVERSIDE,CA
46195,92505,LA SIERRA,CA
46196,92506,RIVERSIDE,CA
46197,92507,RIVERSIDE,CA
46198,92507,BOX SPRINGS,CA
46199,92507,CANYON CREST,CA
46200,92508,RIVERSIDE,CA
46201,92509,RIVERSIDE,CA
46202,92509,JURUPA VALLEY,CA
46203,92509,RUBIDOUX,CA
46204,92513,RIVERSIDE,CA
46205,92514,RIVERSIDE,CA
46206,92515,RIVERSIDE,CA
46207,92516,RIVERSIDE,CA
46208,92517,RIVERSIDE,CA
46209,92518,MARCH AIR RESERVE BASE,CA
46210,92518,MARCH ARB,CA
46211,92518,RIVERSIDE,CA
46212,92519,RIVERSIDE,CA
46213,92519,RUBIDOUX,CA
46214,92521,RIVERSIDE,CA
46215,92521,UNIV OF CA RIVERSIDE,CA
46216,92522,RIVERSIDE,CA
46217,92522,CITY OF RIVERSIDE,CA
46218,92341,GREEN VALLEY LAKE,CA
46219,92341,GREEN VLY LK,CA
46220,92382,RUNNING SPRINGS,CA
46221,92382,ARROWBEAR LAKE,CA
46222,92382,ARROWBEAR LK,CA
46223,92382,RUNNING SPGS,CA
46224,92401,SAN BERNARDINO,CA
46225,92401,SN BERNRDNO,CA
46226,92402,SAN BERNARDINO,CA
46227,92402,SN BERNRDNO,CA
46228,92403,SAN BERNARDINO,CA
46229,92403,SN BERNRDNO,CA
46230,92404,SAN BERNARDINO,CA
46231,92404,SN BERNRDNO,CA
46232,92404,DEL ROSA,CA
46233,92405,SAN BERNARDINO,CA
46234,92405,SN BERNRDNO,CA
46235,92406,SAN BERNARDINO,CA
46236,92406,SN BERNRDNO,CA
46237,92407,SAN BERNARDINO,CA
46238,92407,ARROWHEAD FARMS,CA
46239,92407,ARROWHED FARM,CA
46240,92407,DEVORE HEIGHTS,CA
46241,92407,DEVORE HGHTS,CA
46242,92407,MUSCOY,CA
46243,92407,SN BERNRDNO,CA
46244,92407,VERDEMONT,CA
46245,92407,CAJON JUNCTION,CA
46246,92408,SAN BERNARDINO,CA
46247,92408,SN BERNRDNO,CA
46248,92410,SAN BERNARDINO,CA
46249,92410,SN BERNRDNO,CA
46250,92410,BASE LINE,CA
46251,92411,SAN BERNARDINO,CA
46252,92411,SN BERNRDNO,CA
46253,92412,SAN BERNARDINO,CA
46254,92412,SN BERNRDNO,CA
46255,92413,SAN BERNARDINO,CA
46256,92413,SN BERNRDNO,CA
46257,92413,DEL ROSA,CA
46258,92414,SAN BERNARDINO,CA
46259,92414,SN BERNRDNO,CA
46260,92414,CAMPUS CRUSADE FOR CHRIST,CA
46261,92415,SAN BERNARDINO,CA
46262,92415,SN BERNRDNO,CA
46263,92415,S B COUNTY OFFICES,CA
46264,92418,SAN BERNARDINO,CA
46265,92418,SN BERNRDNO,CA
46266,92418,CITY HALL,CA
46267,92423,SAN BERNARDINO,CA
46268,92423,SN BERNRDNO,CA
46269,92424,SAN BERNARDINO,CA
46270,92424,SN BERNRDNO,CA
46271,92424,CAMPUS CRUSADE FOR CHRIST,CA
46272,92427,SAN BERNARDINO,CA
46273,92427,SN BERNRDNO,CA
46274,92101,SAN DIEGO,CA
46275,92102,SAN DIEGO,CA
46276,92103,SAN DIEGO,CA
46277,92104,SAN DIEGO,CA
46278,92105,SAN DIEGO,CA
46279,92106,SAN DIEGO,CA
46280,92107,SAN DIEGO,CA
46281,92107,OCEAN BEACH,CA
46282,92108,SAN DIEGO,CA
46283,92109,SAN DIEGO,CA
46284,92109,PACIFIC BEACH,CA
46285,92110,SAN DIEGO,CA
46286,92111,SAN DIEGO,CA
46287,92112,SAN DIEGO,CA
46288,92113,SAN DIEGO,CA
46289,92114,SAN DIEGO,CA
46290,92115,SAN DIEGO,CA
46291,92116,SAN DIEGO,CA
46292,92117,SAN DIEGO,CA
46293,92118,CORONADO,CA
46294,92118,SAN DIEGO,CA
46295,92119,SAN DIEGO,CA
46296,92120,SAN DIEGO,CA
46297,92121,SAN DIEGO,CA
46298,92122,SAN DIEGO,CA
46299,92123,SAN DIEGO,CA
46300,92124,SAN DIEGO,CA
46301,92126,SAN DIEGO,CA
46302,92127,SAN DIEGO,CA
46303,92128,SAN DIEGO,CA
46304,92128,RANCHO BERNARDO,CA
46305,92129,SAN DIEGO,CA
46306,92130,SAN DIEGO,CA
46307,92131,SAN DIEGO,CA
46308,92132,SAN DIEGO,CA
46309,92132,NAVAL SUPPLY CTR,CA
46310,92134,SAN DIEGO,CA
46311,92134,NAVAL HOSPITAL,CA
46312,92135,SAN DIEGO,CA
46313,92135,NAS N ISLAND,CA
46314,92135,NAS NORTH ISLAND,CA
46315,92136,SAN DIEGO,CA
46316,92136,NAVAL STATION 32ND ST,CA
46317,92137,SAN DIEGO,CA
46318,92138,SAN DIEGO,CA
46319,92139,SAN DIEGO,CA
46320,92140,SAN DIEGO,CA
46321,92140,MCRD SAN DIEGO,CA
46322,92142,SAN DIEGO,CA
46323,92143,SAN YSIDRO,CA
46324,92143,SAN DIEGO,CA
46325,92145,SAN DIEGO,CA
46326,92145,NAS MIRAMAR,CA
46327,92147,SAN DIEGO,CA
46328,92147,ASW TRAINING CTR,CA
46329,92149,SAN DIEGO,CA
46330,92150,SAN DIEGO,CA
46331,92152,SAN DIEGO,CA
46332,92152,SPAWARS SYSTEM CENTER,CA
46333,92153,SAN DIEGO,CA
46334,92153,NESTOR,CA
46335,92154,SAN DIEGO,CA
46336,92155,SAN DIEGO,CA
46337,92155,NAVAL AMPHIBIOUS BASE,CA
46338,92158,SAN DIEGO,CA
46339,92158,SAN DIEGO COUNTY JAIL,CA
46340,92159,SAN DIEGO,CA
46341,92160,SAN DIEGO,CA
46342,92161,SAN DIEGO,CA
46343,92161,V A HOSP,CA
46344,92162,SAN DIEGO,CA
46345,92163,SAN DIEGO,CA
46346,92164,SAN DIEGO,CA
46347,92165,SAN DIEGO,CA
46348,92166,SAN DIEGO,CA
46349,92167,SAN DIEGO,CA
46350,92168,SAN DIEGO,CA
46351,92169,SAN DIEGO,CA
46352,92170,SAN DIEGO,CA
46353,92171,SAN DIEGO,CA
46354,92172,SAN DIEGO,CA
46355,92173,SAN YSIDRO,CA
46356,92173,SAN DIEGO,CA
46357,92174,SAN DIEGO,CA
46358,92175,SAN DIEGO,CA
46359,92176,SAN DIEGO,CA
46360,92177,SAN DIEGO,CA
46361,92178,CORONADO,CA
46362,92178,SAN DIEGO,CA
46363,92179,SAN DIEGO,CA
46364,92182,SAN DIEGO,CA
46365,92182,SAN DIEGO STATE UNIVERSITY,CA
46366,92184,SAN DIEGO,CA
46367,92184,SAN DIEGO GAS AND ELECTRIC,CA
46368,92186,SAN DIEGO,CA
46369,92187,SAN DIEGO,CA
46370,92187,SAN DIEGO WATER UTILITIES,CA
46371,92190,SAN DIEGO,CA
46372,92191,SAN DIEGO,CA
46373,92192,SAN DIEGO,CA
46374,92193,SAN DIEGO,CA
46375,92195,SAN DIEGO,CA
46376,92196,SAN DIEGO,CA
46377,92197,SAN DIEGO,CA
46378,92198,SAN DIEGO,CA
46379,92199,SAN DIEGO,CA
46380,92581,SAN JACINTO,CA
46381,92582,SAN JACINTO,CA
46382,92583,SAN JACINTO,CA
46383,92583,GILMAN HOT SPRINGS,CA
46384,92583,GLMN HOT SPGS,CA
46385,92069,SAN MARCOS,CA
46386,92069,LAKE SAN MARCOS,CA
46387,92078,SAN MARCOS,CA
46388,92079,SAN MARCOS,CA
46389,92096,SAN MARCOS,CA
46390,92096,CALIFORNIA STATE SAN MARCOS,CA
46391,92070,SANTA YSABEL,CA
46392,92071,SANTEE,CA
46393,92072,SANTEE,CA
46394,92273,SEELEY,CA
46395,92384,SHOSHONE,CA
46396,92385,SKYFOREST,CA
46397,92075,SOLANA BEACH,CA
46398,91976,SPRING VALLEY,CA
46399,91977,SPRING VALLEY,CA
46400,91978,SPRING VALLEY,CA
46401,91979,SPRING VALLEY,CA
46402,92584,MENIFEE,CA
46403,92584,SUN CITY,CA
46404,92585,SUN CITY,CA
46405,92585,MENIFEE,CA
46406,92585,ROMOLAND,CA
46407,92586,SUN CITY,CA
46408,92586,MENIFEE,CA
46409,92587,SUN CITY,CA
46410,92587,CANYON LAKE,CA
46411,92587,MENIFEE,CA
46412,92587,QUAIL VALLEY,CA
46413,91980,TECATE,CA
46414,91987,TECATE,CA
46415,91987,CAMPO,CA
46416,91987,T K MANUFACTURING,CA
46417,92389,TECOPA,CA
46418,92389,TECOPA HOT SPRINGS,CA
46419,92589,TEMECULA,CA
46420,92589,RANCHO CALIFORNIA,CA
46421,92590,TEMECULA,CA
46422,92590,RANCHO CALIFORNIA,CA
46423,92591,TEMECULA,CA
46424,92591,RANCHO CALIFORNIA,CA
46425,92592,TEMECULA,CA
46426,92592,RANCHO CALIFORNIA,CA
46427,92593,TEMECULA,CA
46428,92593,RANCHO CALIFORNIA,CA
46429,92274,THERMAL,CA
46430,92274,DESERT SHORES,CA
46431,92274,ONE HUNDRED PALMS,CA
46432,92274,SANDY KORNER,CA
46433,92274,TORRES MARTINEZ INDIAN RESER,CA
46434,92274,VALERIE,CA
46435,92274,VISTA SANTA ROSA,CA
46436,92274,100 PALMS,CA
46437,92275,SALTON CITY,CA
46438,92275,THERMAL,CA
46439,92276,THOUSAND PALMS,CA
46440,92276,THOUSAND PLMS,CA
46441,92276,1000 PALMS,CA
46442,92277,TWENTYNINE PALMS,CA
46443,92277,TWENTYNIN PLM,CA
46444,92277,29 PALMS,CA
46445,92278,TWENTYNINE PALMS,CA
46446,92278,TWENTYNIN PLM,CA
46447,92278,TWENTYNINE PALMS MCB,CA
46448,92278,29 PALMS,CA
46449,92391,TWIN PEAKS,CA
46450,92082,VALLEY CENTER,CA
46451,92392,VICTORVILLE,CA
46452,92393,VICTORVILLE,CA
46453,92394,VICTORVILLE,CA
46454,92394,GEORGE AFB,CA
46455,92395,VICTORVILLE,CA
46456,92395,SPG VALLEY LK,CA
46457,92395,SPRING VALLEY LAKE,CA
46458,92081,VISTA,CA
46459,92083,VISTA,CA
46460,92084,VISTA,CA
46461,92085,VISTA,CA
46462,92066,RANCHITA,CA
46463,92066,WARNER SPGS,CA
46464,92066,WARNER SPRINGS,CA
46465,92086,WARNER SPRINGS,CA
46466,92086,WARNER SPGS,CA
46467,92281,WESTMORLAND,CA
46468,92595,WILDOMAR,CA
46469,92596,WINCHESTER,CA
46470,92596,MENIFEE,CA
46471,92283,WINTERHAVEN,CA
46472,92283,FELICITY,CA
46473,92397,WRIGHTWOOD,CA
46474,92398,YERMO,CA
46475,92399,YUCAIPA,CA
46476,92399,OAK GLEN,CA
46477,92284,YUCCA VALLEY,CA
46478,92285,LANDERS,CA
46479,92285,JOHNSON VALLEY,CA
46480,92285,JOHNSON VLY,CA
46481,92285,YUCCA VALLEY,CA
46482,92286,YUCCA VALLEY,CA
46483,91714,CITY OF INDUSTRY,CA
46484,91714,CITY INDUSTRY,CA
46485,91715,CITY OF INDUSTRY,CA
46486,91715,CITY INDUSTRY,CA
46487,91716,CITY OF INDUSTRY,CA
46488,91716,CITY INDUSTRY,CA
46489,91801,ALHAMBRA,CA
46490,91802,ALHAMBRA,CA
46491,91803,ALHAMBRA,CA
46492,91804,ALHAMBRA,CA
46493,91896,ALHAMBRA,CA
46494,91899,ALHAMBRA,CA
46495,91899,CITY OF INDUSTRY,CA
46496,92801,ANAHEIM,CA
46497,92802,ANAHEIM,CA
46498,92802,HOLIDAY,CA
46499,92803,ANAHEIM,CA
46500,92804,ANAHEIM,CA
46501,92804,BROOKHURST CENTER,CA
46502,92805,ANAHEIM,CA
46503,92805,FEDERAL,CA
46504,92806,ANAHEIM,CA
46505,92806,SUNKIST,CA
46506,92807,ANAHEIM,CA
46507,92807,ANAHEIM HILLS,CA
46508,92808,ANAHEIM,CA
46509,92808,ANAHEIM HILLS,CA
46510,92809,ANAHEIM,CA
46511,92809,ANAHEIM HILLS,CA
46512,92812,ANAHEIM,CA
46513,92814,ANAHEIM,CA
46514,92815,ANAHEIM,CA
46515,92816,ANAHEIM,CA
46516,92817,ANAHEIM,CA
46517,92817,ANAHEIM HILLS,CA
46518,92825,ANAHEIM,CA
46519,92850,ANAHEIM,CA
46520,92850,HOUSEHOLD FINANCE,CA
46521,92899,ANAHEIM,CA
46522,90701,ARTESIA,CA
46523,90701,CERRITOS,CA
46524,90702,ARTESIA,CA
46525,90703,CERRITOS,CA
46526,90703,ARTESIA,CA
46527,92811,ATWOOD,CA
46528,90704,AVALON,CA
46529,90704,CATALINA,CA
46530,90704,SANTA CATALINA,CA
46531,91702,AZUSA,CA
46532,91702,IRWINDALE,CA
46533,91706,BALDWIN PARK,CA
46534,91706,IRWINDALE,CA
46535,90706,BELLFLOWER,CA
46536,90707,BELLFLOWER,CA
46537,92821,BREA,CA
46538,92822,BREA,CA
46539,92823,BREA,CA
46540,90620,BUENA PARK,CA
46541,90621,BUENA PARK,CA
46542,90622,BUENA PARK,CA
46543,90623,LA PALMA,CA
46544,90623,BUENA PARK,CA
46545,90624,BUENA PARK,CA
46546,91708,CHINO,CA
46547,91710,CHINO,CA
46548,91710,MONTCLAIR,CA
46549,91710,ONTARIO,CA
46550,91709,CHINO HILLS,CA
46551,91711,CLAREMONT,CA
46552,92877,CORONA,CA
46553,92878,CORONA,CA
46554,92879,CORONA,CA
46555,92880,CORONA,CA
46556,92880,EASTVALE,CA
46557,92881,CORONA,CA
46558,92882,CORONA,CA
46559,92883,CORONA,CA
46560,92625,CORONA DEL MAR,CA
46561,92625,CORONA DL MAR,CA
46562,92626,COSTA MESA,CA
46563,92627,COSTA MESA,CA
46564,92628,COSTA MESA,CA
46565,91722,COVINA,CA
46566,91723,COVINA,CA
46567,91724,COVINA,CA
46568,91724,CHARTER OAK,CA
46569,90630,CYPRESS,CA
46570,92624,CAPISTRANO BEACH,CA
46571,92624,CAPO BEACH,CA
46572,92624,DANA POINT,CA
46573,92629,DANA POINT,CA
46574,92629,MONARCH BAY,CA
46575,92629,MONARCH BEACH,CA
46576,91731,EL MONTE,CA
46577,91732,EL MONTE,CA
46578,91732,CITY INDUSTRY,CA
46579,91732,CITY OF INDUSTRY,CA
46580,91733,SOUTH EL MONTE,CA
46581,91733,EL MONTE,CA
46582,91733,S EL MONTE,CA
46583,91734,EL MONTE,CA
46584,91735,EL MONTE,CA
46585,91735,WELLS FARGO BANK,CA
46586,92609,EL TORO,CA
46587,92609,LAKE FOREST,CA
46588,92630,LAKE FOREST,CA
46589,92630,EL TORO,CA
46590,92831,FULLERTON,CA
46591,92832,FULLERTON,CA
46592,92833,FULLERTON,CA
46593,92834,FULLERTON,CA
46594,92835,FULLERTON,CA
46595,92836,FULLERTON,CA
46596,92837,FULLERTON,CA
46597,92838,FULLERTON,CA
46598,92840,GARDEN GROVE,CA
46599,92841,GARDEN GROVE,CA
46600,92842,GARDEN GROVE,CA
46601,92843,GARDEN GROVE,CA
46602,92844,GARDEN GROVE,CA
46603,92845,GARDEN GROVE,CA
46604,92846,GARDEN GROVE,CA
46605,91740,GLENDORA,CA
46606,91741,GLENDORA,CA
46607,91743,GUASTI,CA
46608,90710,HARBOR CITY,CA
46609,92605,HUNTINGTON BEACH,CA
46610,92605,HUNTINGTN BCH,CA
46611,92615,HUNTINGTON BEACH,CA
46612,92615,HUNTINGTN BCH,CA
46613,92646,HUNTINGTON BEACH,CA
46614,92646,HUNTINGTN BCH,CA
46615,92646,HUNTINGTON,CA
46616,92647,HUNTINGTON BEACH,CA
46617,92647,HUNTINGTN BCH,CA
46618,92648,HUNTINGTON BEACH,CA
46619,92648,HUNTINGTN BCH,CA
46620,92648,BEACH CENTER,CA
46621,92649,HUNTINGTON BEACH,CA
46622,92649,HUNTINGTN BCH,CA
46623,92602,IRVINE,CA
46624,92603,IRVINE,CA
46625,92604,IRVINE,CA
46626,92606,IRVINE,CA
46627,92612,IRVINE,CA
46628,92614,IRVINE,CA
46629,92616,IRVINE,CA
46630,92617,IRVINE,CA
46631,92618,IRVINE,CA
46632,92619,IRVINE,CA
46633,92620,IRVINE,CA
46634,92623,IRVINE,CA
46635,92650,EAST IRVINE,CA
46636,92650,IRVINE,CA
46637,92697,IRVINE,CA
46638,92697,UCI,CA
46639,92697,UNIV OF CALIFORNIA IRVINE,CA
46640,92607,LAGUNA NIGUEL,CA
46641,92607,LAGUNA BEACH,CA
46642,92637,LAGUNA WOODS,CA
46643,92637,LAGUNA HILLS,CA
46644,92637,LAGUNA BEACH,CA
46645,92651,LAGUNA BEACH,CA
46646,92651,SOUTH LAGUNA,CA
46647,92652,LAGUNA BEACH,CA
46648,92652,PLAYA,CA
46649,92653,LAGUNA HILLS,CA
46650,92653,ALISO VIEJO,CA
46651,92653,LAGUNA BEACH,CA
46652,92653,LAGUNA WOODS,CA
46653,92654,LAGUNA HILLS,CA
46654,92654,LAGUNA BEACH,CA
46655,92654,LAGUNA WOODS,CA
46656,92656,ALISO VIEJO,CA
46657,92656,LAGUNA BEACH,CA
46658,92656,LAGUNA HILLS,CA
46659,92677,LAGUNA NIGUEL,CA
46660,92677,LAGUNA BEACH,CA
46661,92698,ALISO VIEJO,CA
46662,92698,FLUOR CORP,CA
46663,92698,LAGUNA BEACH,CA
46664,90631,LA HABRA,CA
46665,90631,LA HABRA HEIGHTS,CA
46666,90631,LA HABRA HGTS,CA
46667,90631,LA HABRA HTS,CA
46668,90632,LA HABRA,CA
46669,90633,LA HABRA,CA
46670,90711,LAKEWOOD,CA
46671,90712,LAKEWOOD,CA
46672,90713,LAKEWOOD,CA
46673,90714,LAKEWOOD,CA
46674,90715,LAKEWOOD,CA
46675,90716,HAWAIIAN GARDENS,CA
46676,90716,HAWAIIAN GDNS,CA
46677,90716,LAKEWOOD,CA
46678,90637,LA MIRADA,CA
46679,90638,LA MIRADA,CA
46680,90638,LAMIRADA,CA
46681,90638,MIRADA,CA
46682,90639,LA MIRADA,CA
46683,90639,BIOLA UNIVERSITY,CA
46684,91744,LA PUENTE,CA
46685,91744,CITY INDUSTRY,CA
46686,91744,CITY OF INDUSTRY,CA
46687,91745,HACIENDA HEIGHTS,CA
46688,91745,CITY INDUSTRY,CA
46689,91745,CITY OF INDUSTRY,CA
46690,91745,HACIENDA HTS,CA
46691,91745,LA PUENTE,CA
46692,91746,LA PUENTE,CA
46693,91746,BASSETT,CA
46694,91746,CITY INDUSTRY,CA
46695,91746,CITY OF INDUSTRY,CA
46696,91747,LA PUENTE,CA
46697,91748,ROWLAND HEIGHTS,CA
46698,91748,CITY INDUSTRY,CA
46699,91748,CITY OF INDUSTRY,CA
46700,91748,LA PUENTE,CA
46701,91748,ROWLAND HGHTS,CA
46702,91748,ROWLAND HGTS,CA
46703,91749,LA PUENTE,CA
46704,91750,LA VERNE,CA
46705,90717,LOMITA,CA
46706,90745,CARSON,CA
46707,90745,LONG BEACH,CA
46708,90746,CARSON,CA
46709,90746,LONG BEACH,CA
46710,90747,CARSON,CA
46711,90747,LONG BEACH,CA
46712,90747,C S U DOM HLS,CA
46713,90747,CAL STATE UNIV DOM HILLS,CA
46714,90749,CARSON,CA
46715,90749,LONG BEACH,CA
46716,90755,SIGNAL HILL,CA
46717,90755,LONG BEACH,CA
46718,90755,SIGNAL HL,CA
46719,90801,LONG BEACH,CA
46720,90802,LONG BEACH,CA
46721,90803,LONG BEACH,CA
46722,90803,BELMONT SHORE,CA
46723,90803,NAPLES,CA
46724,90804,LONG BEACH,CA
46725,90804,EAST LONG BEACH,CA
46726,90805,LONG BEACH,CA
46727,90805,LAKEWOOD,CA
46728,90805,NORTH LONG BEACH,CA
46729,90806,LONG BEACH,CA
46730,90807,LONG BEACH,CA
46731,90807,SIGNAL HILL,CA
46732,90807,BIXBY KNOLLS,CA
46733,90808,LONG BEACH,CA
46734,90809,LONG BEACH,CA
46735,90809,LB,CA
46736,90810,LONG BEACH,CA
46737,90810,CARSON,CA
46738,90810,CABRILLO,CA
46739,90810,DOMINGUEZ,CA
46740,90813,LONG BEACH,CA
46741,90814,LONG BEACH,CA
46742,90815,LONG BEACH,CA
46743,90822,LONG BEACH,CA
46744,90822,LONG BEACH SHARED FIRM,CA
46745,90831,LONG BEACH,CA
46746,90832,LONG BEACH,CA
46747,90833,LONG BEACH,CA
46748,90834,LONG BEACH,CA
46749,90835,LONG BEACH,CA
46750,90840,LONG BEACH,CA
46751,90840,C S U LONG BEACH,CA
46752,90840,CALIF STATE UNIV LONG BEACH,CA
46753,90842,LONG BEACH,CA
46754,90842,DEPARTMENT OF GAS & WATER,CA
46755,90844,LONG BEACH,CA
46756,90844,PRESS TELEGRAM,CA
46757,90846,LONG BEACH,CA
46758,90846,BOEING,CA
46759,90847,LONG BEACH,CA
46760,90847,AARP,CA
46761,90848,LONG BEACH,CA
46762,90848,A A R P,CA
46763,90848,A A R P PHARMACY,CA
46764,90853,LONG BEACH,CA
46765,90895,CARSON,CA
46766,90895,LONG BEACH,CA
46767,90895,LAKESHORE LEARNING,CA
46768,90899,LONG BEACH,CA
46769,90899,LA INTERNATIONAL SERVICE CTR,CA
46770,90720,LOS ALAMITOS,CA
46771,90720,CYPRESS,CA
46772,90720,ROSSMOOR,CA
46773,90721,LOS ALAMITOS,CA
46774,91752,MIRA LOMA,CA
46775,91752,EASTVALE,CA
46776,91763,MONTCLAIR,CA
46777,90640,MONTEBELLO,CA
46778,91754,MONTEREY PARK,CA
46779,91755,MONTEREY PARK,CA
46780,91756,MONTEREY PARK,CA
46781,91756,MONT PARK,CA
46782,91756,MONT PK,CA
46783,91756,MONTEREY PK,CA
46784,91756,SOUTHERN CALIFORNIA GAS CO,CA
46785,91759,MT BALDY,CA
46786,92657,NEWPORT COAST,CA
46787,92657,NEWPORT BEACH,CA
46788,92658,NEWPORT BEACH,CA
46789,92659,NEWPORT BEACH,CA
46790,92660,NEWPORT BEACH,CA
46791,92661,NEWPORT BEACH,CA
46792,92662,NEWPORT BEACH,CA
46793,92662,BALBOA,CA
46794,92662,BALBOA ISLAND,CA
46795,92663,NEWPORT BEACH,CA
46796,92860,NORCO,CA
46797,90650,NORWALK,CA
46798,90651,NORWALK,CA
46799,90652,NORWALK,CA
46800,91758,ONTARIO,CA
46801,91761,ONTARIO,CA
46802,91762,ONTARIO,CA
46803,91762,MONTCLAIR,CA
46804,91764,ONTARIO,CA
46805,92856,ORANGE,CA
46806,92857,ORANGE,CA
46807,92859,ORANGE,CA
46808,92861,VILLA PARK,CA
46809,92861,ORANGE,CA
46810,92862,ORANGE,CA
46811,92863,ORANGE,CA
46812,92864,ORANGE,CA
46813,92865,ORANGE,CA
46814,92866,ORANGE,CA
46815,92867,ORANGE,CA
46816,92867,VILLA PARK,CA
46817,92868,ORANGE,CA
46818,92869,ORANGE,CA
46819,90723,PARAMOUNT,CA
46820,90660,PICO RIVERA,CA
46821,90661,PICO RIVERA,CA
46822,90662,PICO RIVERA,CA
46823,92870,PLACENTIA,CA
46824,92871,PLACENTIA,CA
46825,91765,DIAMOND BAR,CA
46826,91765,POMONA,CA
46827,91766,POMONA,CA
46828,91766,PHILLIPS RANCH,CA
46829,91766,PHILLIPS RNCH,CA
46830,91767,POMONA,CA
46831,91768,POMONA,CA
46832,91769,POMONA,CA
46833,91701,RANCHO CUCAMONGA,CA
46834,91701,ALTA LOMA,CA
46835,91701,RCH CUCAMONGA,CA
46836,91729,RANCHO CUCAMONGA,CA
46837,91729,RCH CUCAMONGA,CA
46838,91729,CUCAMONGA,CA
46839,91730,RANCHO CUCAMONGA,CA
46840,91730,RCH CUCAMONGA,CA
46841,91730,CUCAMONGA,CA
46842,91737,RANCHO CUCAMONGA,CA
46843,91737,ALTA LOMA,CA
46844,91737,RCH CUCAMONGA,CA
46845,91739,RANCHO CUCAMONGA,CA
46846,91739,ETIWANDA,CA
46847,91739,RCH CUCAMONGA,CA
46848,91770,ROSEMEAD,CA
46849,91771,ROSEMEAD,CA
46850,91771,SO CAL EDISON CO,CA
46851,91772,ROSEMEAD,CA
46852,91772,SO CAL EDISON CO,CA
46853,92672,SAN CLEMENTE,CA
46854,92673,SAN CLEMENTE,CA
46855,92674,SAN CLEMENTE,CA
46856,91773,SAN DIMAS,CA
46857,91775,SAN GABRIEL,CA
46858,91776,SAN GABRIEL,CA
46859,91778,SAN GABRIEL,CA
46860,92675,SAN JUAN CAPISTRANO,CA
46861,92675,MISSION VIEJO,CA
46862,92675,SAN JUAN CAPO,CA
46863,92690,MISSION VIEJO,CA
46864,92690,SAN JUAN CAPISTRANO,CA
46865,92690,SAN JUAN CAPO,CA
46866,92691,MISSION VIEJO,CA
46867,92691,SAN JUAN CAPISTRANO,CA
46868,92691,SAN JUAN CAPO,CA
46869,92692,MISSION VIEJO,CA
46870,92692,SAN JUAN CAPISTRANO,CA
46871,92692,SAN JUAN CAPO,CA
46872,92693,SAN JUAN CAPISTRANO,CA
46873,92693,SAN JUAN CAPO,CA
46874,92694,LADERA RANCH,CA
46875,92694,MISSION VIEJO,CA
46876,92694,SAN JUAN CAPISTRANO,CA
46877,90731,SAN PEDRO,CA
46878,90731,FORT MACARTHUR,CA
46879,90731,FT MACARTHUR,CA
46880,90731,TERMINAL ISLAND,CA
46881,90732,SAN PEDRO,CA
46882,90733,SAN PEDRO,CA
46883,90734,SAN PEDRO,CA
46884,92701,SANTA ANA,CA
46885,92702,SANTA ANA,CA
46886,92703,SANTA ANA,CA
46887,92703,BRISTOL,CA
46888,92704,SANTA ANA,CA
46889,92704,DIAMOND,CA
46890,92705,SANTA ANA,CA
46891,92705,COWAN HEIGHTS,CA
46892,92705,NORTH TUSTIN,CA
46893,92706,SANTA ANA,CA
46894,92706,KING,CA
46895,92707,SANTA ANA,CA
46896,92707,SOUTH MAIN,CA
46897,92708,FOUNTAIN VALLEY,CA
46898,92708,FOUNTAIN VLY,CA
46899,92708,SANTA ANA,CA
46900,92711,SANTA ANA,CA
46901,92712,SANTA ANA,CA
46902,92725,SANTA ANA,CA
46903,92725,BANK OF AMERICA,CA
46904,92728,FOUNTAIN VALLEY,CA
46905,92728,FOUNTAIN VLY,CA
46906,92728,SANTA ANA,CA
46907,92735,SANTA ANA,CA
46908,92799,SANTA ANA,CA
46909,90670,SANTA FE SPRINGS,CA
46910,90670,SANTA FE SPGS,CA
46911,90671,SANTA FE SPRINGS,CA
46912,90671,SANTA FE SPGS,CA
46913,90740,SEAL BEACH,CA
46914,92676,SILVERADO,CA
46915,92676,MODJESKA,CA
46916,92676,MODJESKA CANYON,CA
46917,90680,STANTON,CA
46918,90742,SUNSET BEACH,CA
46919,90743,SURFSIDE,CA
46920,91780,TEMPLE CITY,CA
46921,90501,TORRANCE,CA
46922,90502,TORRANCE,CA
46923,90503,TORRANCE,CA
46924,90504,TORRANCE,CA
46925,90505,TORRANCE,CA
46926,90506,TORRANCE,CA
46927,90507,TORRANCE,CA
46928,90508,TORRANCE,CA
46929,90509,TORRANCE,CA
46930,90510,TORRANCE,CA
46931,92610,FOOTHILL RANCH,CA
46932,92610,EL TORO,CA
46933,92610,FOOTHILL RNCH,CA
46934,92610,LAKE FOREST,CA
46935,92678,TRABUCO CANYON,CA
46936,92678,TRABUCO CYN,CA
46937,92679,TRABUCO CANYON,CA
46938,92679,COTO DE CAZA,CA
46939,92679,DOVE CANYON,CA
46940,92679,PORTOLA HILLS,CA
46941,92679,ROBINSON RANCH,CA
46942,92679,ROBINSON RNCH,CA
46943,92679,TRABUCO,CA
46944,92679,TRABUCO CYN,CA
46945,92688,RANCHO SANTA MARGARITA,CA
46946,92688,RANCHO STA MARG,CA
46947,92688,RCHO STA MARG,CA
46948,92688,RSM,CA
46949,92688,TRABUCO CANYON,CA
46950,92780,TUSTIN,CA
46951,92781,TUSTIN,CA
46952,92782,TUSTIN,CA
46953,91784,UPLAND,CA
46954,91785,UPLAND,CA
46955,91786,UPLAND,CA
46956,91788,WALNUT,CA
46957,91789,WALNUT,CA
46958,91789,CITY INDUSTRY,CA
46959,91789,CITY OF INDUSTRY,CA
46960,91789,DIAMOND BAR,CA
46961,91795,WALNUT,CA
46962,91795,FEDERAL HOME LOAN BANK,CA
46963,91790,WEST COVINA,CA
46964,91791,WEST COVINA,CA
46965,91792,WEST COVINA,CA
46966,91793,WEST COVINA,CA
46967,92655,MIDWAY CITY,CA
46968,92683,WESTMINSTER,CA
46969,92684,WESTMINSTER,CA
46970,92685,WESTMINSTER,CA
46971,90601,WHITTIER,CA
46972,90601,CITY INDUSTRY,CA
46973,90601,CITY OF INDUSTRY,CA
46974,90601,PICO RIVERA,CA
46975,90602,WHITTIER,CA
46976,90603,WHITTIER,CA
46977,90604,WHITTIER,CA
46978,90605,WHITTIER,CA
46979,90605,SANTA FE SPRINGS,CA
46980,90606,WHITTIER,CA
46981,90606,LOS NIETOS,CA
46982,90607,WHITTIER,CA
46983,90608,WHITTIER,CA
46984,90609,WHITTIER,CA
46985,90610,WHITTIER,CA
46986,90610,LOS NIETOS,CA
46987,90744,WILMINGTON,CA
46988,90748,WILMINGTON,CA
46989,92885,YORBA LINDA,CA
46990,92886,YORBA LINDA,CA
46991,92887,YORBA LINDA,CA
46992,95410,ALBION,CA
46993,95511,ALDERPOINT,CA
46994,95412,ANNAPOLIS,CA
46995,95518,ARCATA,CA
46996,95519,MCKINLEYVILLE,CA
46997,95521,ARCATA,CA
46998,95521,MC KINLEYVILLE,CA
46999,95521,MCKINLEYVILLE,CA
47000,95521,MANILA,CA
47001,95524,BAYSIDE,CA
47002,94002,BELMONT,CA
47003,94920,BELVEDERE TIBURON,CA
47004,94920,BEL TIBURON,CA
47005,94920,BELVEDERE,CA
47006,94920,TIBURON,CA
47007,95514,BLOCKSBURG,CA
47008,95525,BLUE LAKE,CA
47009,94922,BODEGA,CA
47010,94923,BODEGA BAY,CA
47011,94923,SALMON CREEK,CA
47012,94924,BOLINAS,CA
47013,95415,BOONVILLE,CA
47014,95416,BOYES HOT SPRINGS,CA
47015,95416,BOYES HOT SPG,CA
47016,95416,B H SPRINGS,CA
47017,95416,BOYES SPRINGS,CA
47018,95416,FETTERS HOT SPRINGS,CA
47019,95526,BRIDGEVILLE,CA
47020,95526,MAD RIVER,CA
47021,95526,RUTH,CA
47022,94005,BRISBANE,CA
47023,94010,BURLINGAME,CA
47024,94010,HILLSBOROUGH,CA
47025,94011,BURLINGAME,CA
47026,95527,BURNT RANCH,CA
47027,95419,CAMP MEEKER,CA
47028,95528,CARLOTTA,CA
47029,95421,CAZADERO,CA
47030,95422,CLEARLAKE,CA
47031,95423,CLEARLAKE OAKS,CA
47032,95423,CLEARLAKE OKS,CA
47033,95423,SULPHUR BANK RANCHERIA,CA
47034,95424,CLEARLAKE PARK,CA
47035,95424,CLEARLAKE PK,CA
47036,95425,CLOVERDALE,CA
47037,95425,ASTI,CA
47038,95425,THE GEYSERS,CA
47039,95426,COBB,CA
47040,95427,COMPTCHE,CA
47041,95427,KEENE SUMMIT,CA
47042,94925,CORTE MADERA,CA
47043,94976,CORTE MADERA,CA
47044,94926,ROHNERT PARK,CA
47045,94926,COTATI,CA
47046,94926,STATE FARM INSURANCE,CA
47047,94927,ROHNERT PARK,CA
47048,94927,COTATI,CA
47049,94928,ROHNERT PARK,CA
47050,94928,COTATI,CA
47051,94931,COTATI,CA
47052,95428,COVELO,CA
47053,95531,CRESCENT CITY,CA
47054,95531,NORTHCREST,CA
47055,95532,CRESCENT CITY,CA
47056,95532,PELICAN BAY STATE PRISON,CA
47057,95538,FORT DICK,CA
47058,95538,CRESCENT CITY,CA
47059,94014,DALY CITY,CA
47060,94014,COLMA,CA
47061,94015,DALY CITY,CA
47062,94015,BROADMOOR VLG,CA
47063,94016,DALY CITY,CA
47064,94017,DALY CITY,CA
47065,94929,DILLON BEACH,CA
47066,95430,DUNCANS MILLS,CA
47067,95431,ELDRIDGE,CA
47068,94018,EL GRANADA,CA
47069,95432,ELK,CA
47070,95433,EL VERANO,CA
47071,95501,EUREKA,CA
47072,95501,CUTTEN,CA
47073,95502,EUREKA,CA
47074,95503,EUREKA,CA
47075,95534,CUTTEN,CA
47076,95534,EUREKA,CA
47077,94930,FAIRFAX,CA
47078,94978,FAIRFAX,CA
47079,95536,FERNDALE,CA
47080,95537,FIELDS LANDING,CA
47081,95537,FIELDS LDG,CA
47082,95435,FINLEY,CA
47083,94933,FOREST KNOLLS,CA
47084,95436,FORESTVILLE,CA
47085,95420,CASPAR,CA
47086,95437,FORT BRAGG,CA
47087,95437,CLEONE,CA
47088,95437,INGLENOOK,CA
47089,95437,NOYO,CA
47090,95437,PUDDING CREEK,CA
47091,95437,REDWOOD LODGE,CA
47092,95437,SHERWOOD VALLEY RANCHERIA,CA
47093,95488,WESTPORT,CA
47094,95488,FORT BRAGG,CA
47095,95488,ROCKPORT,CA
47096,95540,FORTUNA,CA
47097,95439,FULTON,CA
47098,95542,GARBERVILLE,CA
47099,95543,GASQUET,CA
47100,95441,GEYSERVILLE,CA
47101,95442,GLEN ELLEN,CA
47102,95443,GLENHAVEN,CA
47103,95444,GRATON,CA
47104,95445,GUALALA,CA
47105,95445,ANCHOR BAY,CA
47106,95445,THE SEA RANCH,CA
47107,95497,THE SEA RANCH,CA
47108,95446,GUERNEVILLE,CA
47109,95446,GUERNEWOOD,CA
47110,95471,RIO NIDO,CA
47111,94019,HALF MOON BAY,CA
47112,94019,PRINCETON BY THE SEA,CA
47113,95448,HEALDSBURG,CA
47114,95545,HONEYDEW,CA
47115,95546,HOOPA,CA
47116,95546,HOOPA VALLEY INDIAN RESERVAT,CA
47117,95546,RESIGHINI RANCHERIA,CA
47118,95546,WEITCHPEC,CA
47119,95449,HOPLAND,CA
47120,95547,HYDESVILLE,CA
47121,94937,INVERNESS,CA
47122,95450,JENNER,CA
47123,95450,FORT ROSS,CA
47124,95451,KELSEYVILLE,CA
47125,95452,KENWOOD,CA
47126,95548,KLAMATH,CA
47127,95549,KNEELAND,CA
47128,95550,KORBEL,CA
47129,94938,LAGUNITAS,CA
47130,94020,LA HONDA,CA
47131,95453,LAKEPORT,CA
47132,94939,LARKSPUR,CA
47133,94977,LARKSPUR,CA
47134,95417,BRANSCOMB,CA
47135,95417,LAYTONVILLE,CA
47136,95454,LAYTONVILLE,CA
47137,95454,LAYTONVILLE RANCHERIA,CA
47138,95585,LEGGETT,CA
47139,95456,LITTLE RIVER,CA
47140,95456,LITTLERIVER,CA
47141,95551,LOLETA,CA
47142,94021,LOMA MAR,CA
47143,94022,LOS ALTOS,CA
47144,94022,LOS ALTOS HILLS,CA
47145,94023,LOS ALTOS,CA
47146,94024,LOS ALTOS,CA
47147,94024,LOS ALTOS HILLS,CA
47148,95457,LOWER LAKE,CA
47149,95458,LUCERNE,CA
47150,95552,MAD RIVER,CA
47151,95459,MANCHESTER,CA
47152,95459,MANCHESTER RANCHERIA,CA
47153,94940,MARSHALL,CA
47154,95460,MENDOCINO,CA
47155,94025,MENLO PARK,CA
47156,94025,W MENLO PARK,CA
47157,94025,WEST MENLO PARK,CA
47158,94026,MENLO PARK,CA
47159,94026,WEST MENLO PARK,CA
47160,94027,ATHERTON,CA
47161,94027,MENLO PARK,CA
47162,94028,PORTOLA VALLEY,CA
47163,94028,MENLO PARK,CA
47164,94028,PORTOLA VALLY,CA
47165,94028,MENLO PK,CA
47166,95461,MIDDLETOWN,CA
47167,95461,LOCH LOMOND,CA
47168,95461,ANDERSON SPRINGS,CA
47169,95467,HIDDEN VALLEY LAKE,CA
47170,95467,HIDDEN VL LK,CA
47171,94030,MILLBRAE,CA
47172,94941,MILL VALLEY,CA
47173,94941,MUIR WOODS,CA
47174,94941,STRAWBERRY POINT,CA
47175,94941,TAMALPAIS VALLEY,CA
47176,94942,MILL VALLEY,CA
47177,95553,MIRANDA,CA
47178,94037,MONTARA,CA
47179,95462,MONTE RIO,CA
47180,95462,RUSSIAN RIVER,CA
47181,95462,RUSSIAN RIVER MDWS,CA
47182,94038,MOSS BEACH,CA
47183,94035,MOUNTAIN VIEW,CA
47184,94035,MOFFETT FIELD,CA
47185,94035,MOFFETT FIELD NAS,CA
47186,94039,MOUNTAIN VIEW,CA
47187,94040,MOUNTAIN VIEW,CA
47188,94040,BLOSSOM VALLEY,CA
47189,94040,MT VIEW,CA
47190,94041,MOUNTAIN VIEW,CA
47191,94042,MOUNTAIN VIEW,CA
47192,94043,MOUNTAIN VIEW,CA
47193,95554,MYERS FLAT,CA
47194,94946,NICASIO,CA
47195,95464,NICE,CA
47196,94945,NOVATO,CA
47197,94945,BLACK POINT,CA
47198,94945,SAN MARIN,CA
47199,94947,NOVATO,CA
47200,94948,NOVATO,CA
47201,94949,NOVATO,CA
47202,94949,BEL MARIN KEYES,CA
47203,94949,IGNACIO,CA
47204,94998,NOVATO,CA
47205,94998,FIREMANS FUND INS,CA
47206,95465,OCCIDENTAL,CA
47207,94950,OLEMA,CA
47208,95555,ORICK,CA
47209,95556,ORLEANS,CA
47210,95568,SOMES BAR,CA
47211,95568,SOMESBAR,CA
47212,94044,PACIFICA,CA
47213,94044,SHARP PARK,CA
47214,94301,PALO ALTO,CA
47215,94302,PALO ALTO,CA
47216,94303,PALO ALTO,CA
47217,94303,E PALO ALTO,CA
47218,94303,EAST PALO ALTO,CA
47219,94304,PALO ALTO,CA
47220,94305,STANFORD,CA
47221,94305,PALO ALTO,CA
47222,94306,PALO ALTO,CA
47223,94309,PALO ALTO,CA
47224,94309,STANFORD,CA
47225,94951,PENNGROVE,CA
47226,94060,PESCADERO,CA
47227,94952,PETALUMA,CA
47228,94952,BLOOMFIELD,CA
47229,94952,FALLON,CA
47230,94952,LAKEVILLE,CA
47231,94952,TWO ROCK RANCH STA,CA
47232,94953,PETALUMA,CA
47233,94954,PETALUMA,CA
47234,94955,PETALUMA,CA
47235,94975,PETALUMA,CA
47236,94999,PETALUMA,CA
47237,95558,PETROLIA,CA
47238,95559,PHILLIPSVILLE,CA
47239,95463,NAVARRO,CA
47240,95466,PHILO,CA
47241,95587,PIERCY,CA
47242,95468,POINT ARENA,CA
47243,95468,POINT ARENA AIR FORCE STATIO,CA
47244,94956,POINT REYES STATION,CA
47245,94956,PT REYES STA,CA
47246,95469,POTTER VALLEY,CA
47247,95569,REDCREST,CA
47248,95560,REDWAY,CA
47249,94061,REDWOOD CITY,CA
47250,94061,WOODSIDE,CA
47251,94062,REDWOOD CITY,CA
47252,94062,EMERALD HILLS,CA
47253,94062,PALOMAR PARK,CA
47254,94062,WOODSIDE,CA
47255,94063,REDWOOD CITY,CA
47256,94064,REDWOOD CITY,CA
47257,94065,REDWOOD CITY,CA
47258,95470,REDWOOD VALLEY,CA
47259,95470,REDWOOD VLY,CA
47260,95562,RIO DELL,CA
47261,94957,ROSS,CA
47262,95563,SALYER,CA
47263,95564,SAMOA,CA
47264,94960,SAN ANSELMO,CA
47265,94979,SAN ANSELMO,CA
47266,94066,SAN BRUNO,CA
47267,94070,SAN CARLOS,CA
47268,94102,SAN FRANCISCO,CA
47269,94103,SAN FRANCISCO,CA
47270,94104,SAN FRANCISCO,CA
47271,94105,SAN FRANCISCO,CA
47272,94107,SAN FRANCISCO,CA
47273,94108,SAN FRANCISCO,CA
47274,94109,SAN FRANCISCO,CA
47275,94110,SAN FRANCISCO,CA
47276,94111,SAN FRANCISCO,CA
47277,94112,SAN FRANCISCO,CA
47278,94114,SAN FRANCISCO,CA
47279,94115,SAN FRANCISCO,CA
47280,94116,SAN FRANCISCO,CA
47281,94117,SAN FRANCISCO,CA
47282,94118,SAN FRANCISCO,CA
47283,94119,SAN FRANCISCO,CA
47284,94120,SAN FRANCISCO,CA
47285,94121,SAN FRANCISCO,CA
47286,94122,SAN FRANCISCO,CA
47287,94123,SAN FRANCISCO,CA
47288,94124,SAN FRANCISCO,CA
47289,94125,SAN FRANCISCO,CA
47290,94126,SAN FRANCISCO,CA
47291,94127,SAN FRANCISCO,CA
47292,94128,SAN FRANCISCO,CA
47293,94128,SAN FRANCISCO INTNL AIRPORT,CA
47294,94129,SAN FRANCISCO,CA
47295,94129,PRESIDIO,CA
47296,94130,SAN FRANCISCO,CA
47297,94131,SAN FRANCISCO,CA
47298,94132,SAN FRANCISCO,CA
47299,94133,SAN FRANCISCO,CA
47300,94134,SAN FRANCISCO,CA
47301,94137,SAN FRANCISCO,CA
47302,94137,BANK OF AMERICA,CA
47303,94139,SAN FRANCISCO,CA
47304,94139,FIRST INTERSTATE BANK,CA
47305,94139,WELLS FARGO BANK,CA
47306,94140,SAN FRANCISCO,CA
47307,94141,SAN FRANCISCO,CA
47308,94142,SAN FRANCISCO,CA
47309,94143,SAN FRANCISCO,CA
47310,94143,UCSF,CA
47311,94144,SAN FRANCISCO,CA
47312,94144,WELLS FARGO BANK,CA
47313,94145,SAN FRANCISCO,CA
47314,94145,UNION BANK OF CALIFORNIA,CA
47315,94146,SAN FRANCISCO,CA
47316,94147,SAN FRANCISCO,CA
47317,94151,SAN FRANCISCO,CA
47318,94151,IRS,CA
47319,94151,IRS REMITTANCE,CA
47320,94153,SAN FRANCISCO,CA
47321,94153,WELLS FARGO BANK,CA
47322,94154,SAN FRANCISCO,CA
47323,94154,BANK OF AMERICA,CA
47324,94156,SAN FRANCISCO,CA
47325,94156,WELLS FARGO BANK,CA
47326,94158,SAN FRANCISCO,CA
47327,94159,SAN FRANCISCO,CA
47328,94160,SAN FRANCISCO,CA
47329,94160,BANK OF AMERICA,CA
47330,94161,SAN FRANCISCO,CA
47331,94161,BANK OF AMERICA,CA
47332,94162,SAN FRANCISCO,CA
47333,94162,WELLS FARGO BANK,CA
47334,94163,SAN FRANCISCO,CA
47335,94163,WELLS FARGO BANK,CA
47336,94164,SAN FRANCISCO,CA
47337,94171,SAN FRANCISCO,CA
47338,94171,AT & T,CA
47339,94172,SAN FRANCISCO,CA
47340,94177,SAN FRANCISCO,CA
47341,94177,PG&E,CA
47342,94188,SAN FRANCISCO,CA
47343,94963,SAN GERONIMO,CA
47344,94074,SAN GREGORIO,CA
47345,94401,SAN MATEO,CA
47346,94402,SAN MATEO,CA
47347,94403,SAN MATEO,CA
47348,94404,SAN MATEO,CA
47349,94404,FOSTER CITY,CA
47350,94497,SAN MATEO,CA
47351,94497,POSTAL DATA CENTER,CA
47352,94964,SAN QUENTIN,CA
47353,94974,SAN QUENTIN,CA
47354,94901,SAN RAFAEL,CA
47355,94901,SAN ANSELMO,CA
47356,94903,SAN RAFAEL,CA
47357,94903,MARINWOOD,CA
47358,94903,SANTA VENETIA,CA
47359,94903,TERRA LINDA,CA
47360,94904,GREENBRAE,CA
47361,94904,KENTFIELD,CA
47362,94904,KENT WOODLANDS,CA
47363,94904,SAN RAFAEL,CA
47364,94912,SAN RAFAEL,CA
47365,94913,SAN RAFAEL,CA
47366,94914,KENTFIELD,CA
47367,94914,GREENBRAE,CA
47368,94914,SAN RAFAEL,CA
47369,94915,SAN RAFAEL,CA
47370,94915,MISSION RAFAEL,CA
47371,95401,SANTA ROSA,CA
47372,95402,SANTA ROSA,CA
47373,95403,SANTA ROSA,CA
47374,95403,LARKFIELD,CA
47375,95404,SANTA ROSA,CA
47376,95405,SANTA ROSA,CA
47377,95406,SANTA ROSA,CA
47378,95407,SANTA ROSA,CA
47379,95407,ROSELAND,CA
47380,95409,SANTA ROSA,CA
47381,95409,KENWOOD,CA
47382,94965,SAUSALITO,CA
47383,94965,MUIR BEACH,CA
47384,94965,MARIN CITY,CA
47385,94966,SAUSALITO,CA
47386,95565,SCOTIA,CA
47387,95472,SEBASTOPOL,CA
47388,95472,FREESTONE,CA
47389,95473,SEBASTOPOL,CA
47390,95567,SMITH RIVER,CA
47391,95476,SONOMA,CA
47392,95476,AGUA CALIENTE,CA
47393,95476,SCHELLVILLE,CA
47394,94080,SOUTH SAN FRANCISCO,CA
47395,94080,S SAN FRAN,CA
47396,94080,S SAN FRANCISCO,CA
47397,94080,SSF,CA
47398,94083,SOUTH SAN FRANCISCO,CA
47399,94083,S SAN FRAN,CA
47400,94083,SOUTH SAN FRANCIS,CA
47401,95480,STEWARTS POINT,CA
47402,95480,STEWARTS PT,CA
47403,95480,STEWARTS POINT RANCHERIA,CA
47404,94970,STINSON BEACH,CA
47405,94085,SUNNYVALE,CA
47406,94086,SUNNYVALE,CA
47407,94087,SUNNYVALE,CA
47408,94088,SUNNYVALE,CA
47409,94088,ONIZUKA AFB,CA
47410,94089,SUNNYVALE,CA
47411,95481,TALMAGE,CA
47412,94971,TOMALES,CA
47413,95570,TRINIDAD,CA
47414,95570,WESTHAVEN,CA
47415,95418,CALPELLA,CA
47416,95418,UKIAH,CA
47417,95482,UKIAH,CA
47418,95485,UPPER LAKE,CA
47419,95493,WITTER SPRINGS,CA
47420,95493,UPPER LAKE,CA
47421,95493,WITTER SPGS,CA
47422,94972,VALLEY FORD,CA
47423,95486,VILLA GRANDE,CA
47424,95486,SHERIDAN,CA
47425,95487,VINEBURG,CA
47426,95571,WEOTT,CA
47427,95589,WHITETHORN,CA
47428,95589,SHELTER COVE,CA
47429,95429,DOS RIOS,CA
47430,95490,WILLITS,CA
47431,95573,WILLOW CREEK,CA
47432,95492,WINDSOR,CA
47433,94973,WOODACRE,CA
47434,95494,YORKVILLE,CA
47435,95595,ZENIA,CA
47436,94501,ALAMEDA,CA
47437,94501,ALAMEDA PT,CA
47438,94502,ALAMEDA,CA
47439,94507,ALAMO,CA
47440,95002,ALVISO,CA
47441,94508,ANGWIN,CA
47442,94576,DEER PARK,CA
47443,94576,ANGWIN,CA
47444,94509,ANTIOCH,CA
47445,94531,ANTIOCH,CA
47446,95001,APTOS,CA
47447,95003,APTOS,CA
47448,95003,RIO DEL MAR,CA
47449,95003,SEACLIFF,CA
47450,95003,SEASCAPE,CA
47451,95004,AROMAS,CA
47452,94510,BENICIA,CA
47453,95005,BEN LOMOND,CA
47454,94701,BERKELEY,CA
47455,94702,BERKELEY,CA
47456,94703,BERKELEY,CA
47457,94704,BERKELEY,CA
47458,94705,BERKELEY,CA
47459,94706,ALBANY,CA
47460,94706,BERKELEY,CA
47461,94706,KENSINGTON,CA
47462,94707,BERKELEY,CA
47463,94707,ALBANY,CA
47464,94707,KENSINGTON,CA
47465,94708,BERKELEY,CA
47466,94708,KENSINGTON,CA
47467,94709,BERKELEY,CA
47468,94710,BERKELEY,CA
47469,94710,ALBANY,CA
47470,94712,BERKELEY,CA
47471,94720,BERKELEY,CA
47472,94720,UC BERKELEY,CA
47473,94720,U C BERKELEY,CA
47474,94511,BETHEL ISLAND,CA
47475,93920,BIG SUR,CA
47476,93920,GORDA,CA
47477,93920,LUCIA,CA
47478,93920,PACIFIC VALLEY,CA
47479,94512,BIRDS LANDING,CA
47480,94512,SUISUN CITY,CA
47481,95006,BOULDER CREEK,CA
47482,95006,BIG BASIN,CA
47483,94513,BRENTWOOD,CA
47484,95007,BROOKDALE,CA
47485,94505,DISCOVERY BAY,CA
47486,94505,BYRON,CA
47487,94514,BYRON,CA
47488,94514,DISCOVERY BAY,CA
47489,94515,CALISTOGA,CA
47490,95008,CAMPBELL,CA
47491,95009,CAMPBELL,CA
47492,95011,CAMPBELL,CA
47493,94516,CANYON,CA
47494,95010,CAPITOLA,CA
47495,93921,CARMEL BY THE SEA,CA
47496,93921,CARMEL,CA
47497,93921,CARMEL BY THE,CA
47498,93922,CARMEL,CA
47499,93923,CARMEL,CA
47500,93923,CARMEL HIGHLANDS,CA
47501,93924,CARMEL VALLEY,CA
47502,93924,CARMEL VALLEY VILLAGE,CA
47503,93924,ROBLES DEL RIO,CA
47504,93924,TASSAJARA HOT SPRINGS,CA
47505,95012,CASTROVILLE,CA
47506,93925,CHUALAR,CA
47507,94517,CLAYTON,CA
47508,94518,CONCORD,CA
47509,94519,CONCORD,CA
47510,94520,CONCORD,CA
47511,94520,CLYDE,CA
47512,94521,CONCORD,CA
47513,94522,CONCORD,CA
47514,94523,PLEASANT HILL,CA
47515,94523,CONCORD,CA
47516,94524,CONCORD,CA
47517,94527,CONCORD,CA
47518,94529,CONCORD,CA
47519,94529,CHEVRON,CA
47520,94529,CHEVRON USA INC,CA
47521,94525,CROCKETT,CA
47522,95014,CUPERTINO,CA
47523,95014,MONTE VISTA,CA
47524,95014,PERMANENTE,CA
47525,95015,CUPERTINO,CA
47526,94506,DANVILLE,CA
47527,94506,BLACKHAWK,CA
47528,94526,DANVILLE,CA
47529,95017,DAVENPORT,CA
47530,94528,DIABLO,CA
47531,94530,EL CERRITO,CA
47532,94533,FAIRFIELD,CA
47533,94534,FAIRFIELD,CA
47534,94534,SUISUN CITY,CA
47535,94535,TRAVIS AFB,CA
47536,94535,FAIRFIELD,CA
47537,95018,FELTON,CA
47538,95018,LOMPICO,CA
47539,95019,FREEDOM,CA
47540,94536,FREMONT,CA
47541,94537,FREMONT,CA
47542,94538,FREMONT,CA
47543,94539,FREMONT,CA
47544,94555,FREMONT,CA
47545,95020,GILROY,CA
47546,95021,GILROY,CA
47547,93926,GONZALES,CA
47548,93927,GREENFIELD,CA
47549,94540,HAYWARD,CA
47550,94541,HAYWARD,CA
47551,94542,HAYWARD,CA
47552,94543,HAYWARD,CA
47553,94544,HAYWARD,CA
47554,94545,HAYWARD,CA
47555,94546,CASTRO VALLEY,CA
47556,94546,HAYWARD,CA
47557,94552,CASTRO VALLEY,CA
47558,94552,HAYWARD,CA
47559,94557,HAYWARD,CA
47560,94557,MOUNT EDEN,CA
47561,95023,HOLLISTER,CA
47562,95024,HOLLISTER,CA
47563,93928,JOLON,CA
47564,93928,FORT HUNTER LIGGETT,CA
47565,93928,FT H LIGGETT,CA
47566,93930,KING CITY,CA
47567,94548,KNIGHTSEN,CA
47568,94549,LAFAYETTE,CA
47569,94550,LIVERMORE,CA
47570,94551,LIVERMORE,CA
47571,93932,LOCKWOOD,CA
47572,95030,LOS GATOS,CA
47573,95030,MONTE SERENO,CA
47574,95031,LOS GATOS,CA
47575,95032,LOS GATOS,CA
47576,95033,LOS GATOS,CA
47577,93933,MARINA,CA
47578,94553,MARTINEZ,CA
47579,94553,BRIONES,CA
47580,94553,PACHECO,CA
47581,95035,MILPITAS,CA
47582,95036,MILPITAS,CA
47583,93940,MONTEREY,CA
47584,93940,DEL REY OAKS,CA
47585,93940,POINT SUR,CA
47586,93940,PRESIDIO OF MONTEREY,CA
47587,93942,MONTEREY,CA
47588,93943,MONTEREY,CA
47589,93944,MONTEREY,CA
47590,93944,PRESIDIO MTRY,CA
47591,93944,PRESIDIO OF MONTEREY,CA
47592,94556,MORAGA,CA
47593,94570,MORAGA,CA
47594,94575,MORAGA,CA
47595,95037,MORGAN HILL,CA
47596,95038,MORGAN HILL,CA
47597,95039,MOSS LANDING,CA
47598,95041,MOUNT HERMON,CA
47599,94558,NAPA,CA
47600,94558,SPANISH FLAT,CA
47601,94559,NAPA,CA
47602,94581,NAPA,CA
47603,95042,NEW ALMADEN,CA
47604,94560,NEWARK,CA
47605,94601,OAKLAND,CA
47606,94602,OAKLAND,CA
47607,94602,PIEDMONT,CA
47608,94603,OAKLAND,CA
47609,94604,OAKLAND,CA
47610,94605,OAKLAND,CA
47611,94606,OAKLAND,CA
47612,94607,OAKLAND,CA
47613,94608,EMERYVILLE,CA
47614,94608,OAKLAND,CA
47615,94609,OAKLAND,CA
47616,94610,OAKLAND,CA
47617,94610,PIEDMONT,CA
47618,94610,PIEDMONTXXX,CA
47619,94611,OAKLAND,CA
47620,94611,PIEDMONT,CA
47621,94611,PIEDMONTXXX,CA
47622,94612,OAKLAND,CA
47623,94612,PHILATELIC CENTER,CA
47624,94613,OAKLAND,CA
47625,94614,OAKLAND,CA
47626,94615,OAKLAND,CA
47627,94617,OAKLAND,CA
47628,94618,OAKLAND,CA
47629,94618,PIEDMONT,CA
47630,94619,OAKLAND,CA
47631,94620,PIEDMONT,CA
47632,94620,OAKLAND,CA
47633,94621,OAKLAND,CA
47634,94622,OAKLAND,CA
47635,94622,OAKLAND INTRNTL SERVICE CTR,CA
47636,94623,OAKLAND,CA
47637,94624,OAKLAND,CA
47638,94649,OAKLAND,CA
47639,94649,EBMUD,CA
47640,94659,OAKLAND,CA
47641,94659,BLUE CROSS,CA
47642,94660,OAKLAND,CA
47643,94660,SAFEWAY STORES,CA
47644,94661,OAKLAND,CA
47645,94662,EMERYVILLE,CA
47646,94662,OAKLAND,CA
47647,94666,OAKLAND,CA
47648,94666,KAISER SERVICES,CA
47649,94561,OAKLEY,CA
47650,94562,OAKVILLE,CA
47651,94563,ORINDA,CA
47652,93950,PACIFIC GROVE,CA
47653,93950,DEL MONTE PARK,CA
47654,95043,PAICINES,CA
47655,95043,NEW IDRIA,CA
47656,95043,PANOCHE,CA
47657,95043,PINNACLES,CA
47658,95043,SAN BENITO,CA
47659,93953,PEBBLE BEACH,CA
47660,94564,PINOLE,CA
47661,94565,PITTSBURG,CA
47662,94565,BAY POINT,CA
47663,94565,PORT CHICAGO,CA
47664,94565,WEST PITTSBURG,CA
47665,94566,PLEASANTON,CA
47666,94568,DUBLIN,CA
47667,94568,PLEASANTON,CA
47668,94588,PLEASANTON,CA
47669,94567,POPE VALLEY,CA
47670,94569,PORT COSTA,CA
47671,95026,HOLY CITY,CA
47672,95044,REDWOOD ESTATES,CA
47673,95044,REDWOOD EST,CA
47674,95044,HOLY CITY,CA
47675,94801,RICHMOND,CA
47676,94801,N RICHMOND,CA
47677,94801,NORTH RICHMOND,CA
47678,94801,POINT RICHMOND,CA
47679,94801,PT RICHMOND,CA
47680,94802,RICHMOND,CA
47681,94803,EL SOBRANTE,CA
47682,94803,RICHMOND,CA
47683,94803,SAN PABLO,CA
47684,94804,RICHMOND,CA
47685,94805,RICHMOND,CA
47686,94805,SAN PABLO,CA
47687,94806,SAN PABLO,CA
47688,94806,HILLTOP MALL,CA
47689,94806,RICHMOND,CA
47690,94806,TARA HILLS,CA
47691,94807,RICHMOND,CA
47692,94808,RICHMOND,CA
47693,94820,EL SOBRANTE,CA
47694,94820,RICHMOND,CA
47695,94850,RICHMOND,CA
47696,94571,RIO VISTA,CA
47697,94547,HERCULES,CA
47698,94547,RODEO,CA
47699,94572,RODEO,CA
47700,94573,RUTHERFORD,CA
47701,94574,SAINT HELENA,CA
47702,93901,SALINAS,CA
47703,93902,SALINAS,CA
47704,93905,SALINAS,CA
47705,93905,ALISAL,CA
47706,93906,SALINAS,CA
47707,93907,SALINAS,CA
47708,93907,PRUNEDALE,CA
47709,93908,SALINAS,CA
47710,93908,CORRAL DE TIE,CA
47711,93908,CORRAL DE TIERRA,CA
47712,93912,SALINAS,CA
47713,93915,SALINAS,CA
47714,93962,SPRECKELS,CA
47715,93962,SALINAS,CA
47716,95013,COYOTE,CA
47717,95101,SAN JOSE,CA
47718,95103,SAN JOSE,CA
47719,95106,SAN JOSE,CA
47720,95108,SAN JOSE,CA
47721,95109,SAN JOSE,CA
47722,95110,SAN JOSE,CA
47723,95111,SAN JOSE,CA
47724,95112,SAN JOSE,CA
47725,95113,SAN JOSE,CA
47726,95115,SAN JOSE,CA
47727,95116,SAN JOSE,CA
47728,95117,SAN JOSE,CA
47729,95118,SAN JOSE,CA
47730,95119,SAN JOSE,CA
47731,95120,SAN JOSE,CA
47732,95121,SAN JOSE,CA
47733,95122,SAN JOSE,CA
47734,95123,SAN JOSE,CA
47735,95124,SAN JOSE,CA
47736,95125,SAN JOSE,CA
47737,95126,SAN JOSE,CA
47738,95127,SAN JOSE,CA
47739,95128,SAN JOSE,CA
47740,95129,SAN JOSE,CA
47741,95130,SAN JOSE,CA
47742,95131,SAN JOSE,CA
47743,95132,SAN JOSE,CA
47744,95133,SAN JOSE,CA
47745,95134,SAN JOSE,CA
47746,95135,SAN JOSE,CA
47747,95136,SAN JOSE,CA
47748,95138,SAN JOSE,CA
47749,95139,SAN JOSE,CA
47750,95140,MOUNT HAMILTON,CA
47751,95140,MT HAMILTON,CA
47752,95140,SAN JOSE,CA
47753,95141,SAN JOSE,CA
47754,95148,SAN JOSE,CA
47755,95150,SAN JOSE,CA
47756,95151,SAN JOSE,CA
47757,95152,SAN JOSE,CA
47758,95153,SAN JOSE,CA
47759,95154,SAN JOSE,CA
47760,95155,SAN JOSE,CA
47761,95156,SAN JOSE,CA
47762,95157,SAN JOSE,CA
47763,95158,SAN JOSE,CA
47764,95159,SAN JOSE,CA
47765,95160,SAN JOSE,CA
47766,95161,SAN JOSE,CA
47767,95164,SAN JOSE,CA
47768,95170,SAN JOSE,CA
47769,95172,SAN JOSE,CA
47770,95173,SAN JOSE,CA
47771,95190,SAN JOSE,CA
47772,95190,SAN JOSE MERCURY NEWS,CA
47773,95191,SAN JOSE,CA
47774,95191,A M O R C,CA
47775,95192,SAN JOSE,CA
47776,95192,SAN JOSE STATE UNIVERSITY,CA
47777,95193,SAN JOSE,CA
47778,95193,I B M,CA
47779,95194,SAN JOSE,CA
47780,95194,CALIFORNIA WATER SERVICE,CA
47781,95196,SAN JOSE,CA
47782,95196,SAN JOSE WATER COMPANY,CA
47783,95045,SAN JUAN BAUTISTA,CA
47784,95045,SN JUN BATSTA,CA
47785,94577,SAN LEANDRO,CA
47786,94578,SAN LEANDRO,CA
47787,94579,SAN LEANDRO,CA
47788,94580,SAN LORENZO,CA
47789,93954,SAN LUCAS,CA
47790,95046,SAN MARTIN,CA
47791,94582,SAN RAMON,CA
47792,94583,SAN RAMON,CA
47793,95050,SANTA CLARA,CA
47794,95051,SANTA CLARA,CA
47795,95052,SANTA CLARA,CA
47796,95053,SANTA CLARA,CA
47797,95053,SANTA CLARA UNIVERSITY,CA
47798,95054,SANTA CLARA,CA
47799,95055,SANTA CLARA,CA
47800,95056,SANTA CLARA,CA
47801,95060,SANTA CRUZ,CA
47802,95060,BONNY DOON,CA
47803,95060,SCOTTS VALLEY,CA
47804,95060,PARADISE PARK,CA
47805,95061,SANTA CRUZ,CA
47806,95062,SANTA CRUZ,CA
47807,95063,SANTA CRUZ,CA
47808,95064,SANTA CRUZ,CA
47809,95065,SANTA CRUZ,CA
47810,95066,SCOTTS VALLEY,CA
47811,95066,SANTA CRUZ,CA
47812,95067,SCOTTS VALLEY,CA
47813,95067,SANTA CRUZ,CA
47814,95070,SARATOGA,CA
47815,95071,SARATOGA,CA
47816,93955,SEASIDE,CA
47817,93955,SAND CITY,CA
47818,93960,SOLEDAD,CA
47819,95073,SOQUEL,CA
47820,94585,SUISUN CITY,CA
47821,94585,BIRDS LNDG,CA
47822,94586,SUNOL,CA
47823,95075,TRES PINOS,CA
47824,94587,UNION CITY,CA
47825,94503,AMERICAN CANYON,CA
47826,94503,AMERICAN CYN,CA
47827,94503,VALLEJO,CA
47828,94589,VALLEJO,CA
47829,94589,AMERICAN CANYON,CA
47830,94589,AMERICAN CYN,CA
47831,94590,VALLEJO,CA
47832,94591,VALLEJO,CA
47833,94592,VALLEJO,CA
47834,94592,MARE ISLAND,CA
47835,94595,WALNUT CREEK,CA
47836,94596,WALNUT CREEK,CA
47837,94596,LAFAYETTE,CA
47838,94597,WALNUT CREEK,CA
47839,94598,WALNUT CREEK,CA
47840,95076,WATSONVILLE,CA
47841,95076,CORRALITOS,CA
47842,95076,LA SELVA BCH,CA
47843,95076,LA SELVA BEACH,CA
47844,95076,MT MADONNA,CA
47845,95076,PAJARO,CA
47846,95076,ROYAL OAKS,CA
47847,95077,WATSONVILLE,CA
47848,94599,YOUNTVILLE,CA
47849,95220,ACAMPO,CA
47850,96006,ADIN,CA
47851,93601,AHWAHNEE,CA
47852,93601,NIPINNAWASSEE,CA
47853,95910,ALLEGHANY,CA
47854,95910,FOREST CITY,CA
47855,95701,ALTA,CA
47856,95715,EMIGRANT GAP,CA
47857,95715,ALTA,CA
47858,95715,BLUE CANYON,CA
47859,95601,AMADOR CITY,CA
47860,96007,ANDERSON,CA
47861,96007,OLINDA,CA
47862,95221,ALTAVILLE,CA
47863,95221,ANGELS CAMP,CA
47864,95222,ANGELS CAMP,CA
47865,95703,APPLEGATE,CA
47866,95703,HEATHER GLEN,CA
47867,95912,ARBUCKLE,CA
47868,95912,COLLEGE CITY,CA
47869,95223,ARNOLD,CA
47870,95223,BEAR VALLEY,CA
47871,95223,CAMP CONNELL,CA
47872,95223,DORRINGTON,CA
47873,95913,ARTOIS,CA
47874,95301,ATWATER,CA
47875,93602,AUBERRY,CA
47876,93602,PINERIDGE,CA
47877,95602,AUBURN,CA
47878,95603,AUBURN,CA
47879,95603,CHRISTIAN VALLEY,CA
47880,95603,CLIPPER GAP,CA
47881,95603,LAKE OF THE PINES,CA
47882,95603,OPHIR,CA
47883,95604,AUBURN,CA
47884,95604,BOWMAN,CA
47885,95224,AVERY,CA
47886,95303,BALLICO,CA
47887,95914,BANGOR,CA
47888,93604,BASS LAKE,CA
47889,93669,WISHON,CA
47890,93669,BASS LAKE,CA
47891,96008,BELLA VISTA,CA
47892,95916,BERRY CREEK,CA
47893,95916,BRUSH CREEK,CA
47894,96009,BIEBER,CA
47895,96010,BIG BAR,CA
47896,96011,BIG BEND,CA
47897,93605,BIG CREEK,CA
47898,95917,BIGGS,CA
47899,95305,BIG OAK FLAT,CA
47900,93606,BIOLA,CA
47901,95606,BROOKS,CA
47902,95918,BROWNS VALLEY,CA
47903,95919,BROWNSVILLE,CA
47904,96013,BURNEY,CA
47905,96013,JOHNSON PARK,CA
47906,95225,BURSON,CA
47907,95920,BUTTE CITY,CA
47908,95920,AFTON,CA
47909,96014,CALLAHAN,CA
47910,95709,CAMINO,CA
47911,95709,CEDAR GROVE,CA
47912,95709,EIGHT MILE HOUSE,CA
47913,95709,SNOWLINE CAMP,CA
47914,95922,CAMPTONVILLE,CA
47915,96015,CANBY,CA
47916,93608,CANTUA CREEK,CA
47917,93608,THREE ROCKS,CA
47918,95923,CANYON DAM,CA
47919,95923,CANYONDAM,CA
47920,95923,PRATTVILLE,CA
47921,95923,SENECA,CA
47922,95608,CARMICHAEL,CA
47923,95609,CARMICHAEL,CA
47924,93609,CARUTHERS,CA
47925,96016,CASSEL,CA
47926,96017,CASTELLA,CA
47927,96017,SWEET BRIER,CA
47928,95306,CATHEYS VALLEY,CA
47929,95306,CATHEYS VLY,CA
47930,95924,CEDAR RIDGE,CA
47931,96019,SHASTA LAKE,CA
47932,96019,CENTRAL VALLEY,CA
47933,96019,CENTRAL VLY,CA
47934,96079,SHASTA LAKE,CA
47935,96079,CENTRAL VALLEY,CA
47936,96079,CENTRAL VLY,CA
47937,96079,PROJECT CITY,CA
47938,96089,SHASTA LAKE,CA
47939,96089,SUMMIT CITY,CA
47940,95307,CERES,CA
47941,95925,CHALLENGE,CA
47942,95925,WOODLEAF,CA
47943,96020,CHESTER,CA
47944,95712,CHICAGO PARK,CA
47945,95926,CHICO,CA
47946,95927,CHICO,CA
47947,95928,CHICO,CA
47948,95928,BUTTE CREEK,CA
47949,95928,CHAPMANTOWN,CA
47950,95928,DAYTON,CA
47951,95929,CHICO,CA
47952,95929,CALIF STATE UNIVERSITY CHICO,CA
47953,95973,CHICO,CA
47954,95973,COHASSET,CA
47955,95973,NORD,CA
47956,95973,RICHARDSON SPRINGS,CA
47957,95976,CHICO,CA
47958,95976,BLUE SHIELD OF CAL,CA
47959,95309,CHINESE CAMP,CA
47960,93610,CHOWCHILLA,CA
47961,93610,FAIRMEAD,CA
47962,93610,SHARON,CA
47963,95610,CITRUS HEIGHTS,CA
47964,95610,CITRUS HTS,CA
47965,95611,CITRUS HEIGHTS,CA
47966,95611,CITRUS HTS,CA
47967,95621,CITRUS HEIGHTS,CA
47968,95621,CITRUS HTS,CA
47969,95612,CLARKSBURG,CA
47970,95227,CLEMENTS,CA
47971,95930,CLIPPER MILLS,CA
47972,95981,STRAWBERRY VALLEY,CA
47973,95981,LA PORTE,CA
47974,95981,STRAWBRRY VLY,CA
47975,93611,CLOVIS,CA
47976,93612,CLOVIS,CA
47977,93613,CLOVIS,CA
47978,93619,CLOVIS,CA
47979,93614,COARSEGOLD,CA
47980,95713,COLFAX,CA
47981,95713,EDEN VALLEY,CA
47982,95713,IOWA HILL,CA
47983,95713,CAPE HORN,CA
47984,95713,SHADY GLEN,CA
47985,95713,YANKEE JIMS,CA
47986,95613,COLOMA,CA
47987,95310,COLUMBIA,CA
47988,95932,COLUSA,CA
47989,95614,COOL,CA
47990,95614,AUBURN LAKE TRAILS,CA
47991,95228,COPPEROPOLIS,CA
47992,96021,CORNING,CA
47993,96029,FLOURNOY,CA
47994,96029,CORNING,CA
47995,96022,COTTONWOOD,CA
47996,95311,COULTERVILLE,CA
47997,95615,COURTLAND,CA
47998,95615,PAINTERSVILLE,CA
47999,95615,RANDALL ISLAND,CA
48000,95615,SUTTER ISLAND,CA
48001,95934,CRESCENT MILLS,CA
48002,95934,CRESCENT MLS,CA
48003,95312,CRESSEY,CA
48004,95313,CROWS LANDING,CA
48005,93615,CUTLER,CA
48006,95616,DAVIS,CA
48007,95617,DAVIS,CA
48008,95618,DAVIS,CA
48009,95618,EL MACERO,CA
48010,95315,DELHI,CA
48011,93616,DEL REY,CA
48012,95316,DENAIR,CA
48013,95619,DIAMOND SPRINGS,CA
48014,95619,DIAMOND SPGS,CA
48015,93618,DINUBA,CA
48016,93618,LONDON,CA
48017,95620,DIXON,CA
48018,95620,LIBERTY FARMS,CA
48019,95935,DOBBINS,CA
48020,96023,DORRIS,CA
48021,93620,DOS PALOS,CA
48022,96024,DOUGLAS CITY,CA
48023,95936,DOWNIEVILLE,CA
48024,93621,DUNLAP,CA
48025,95937,DUNNIGAN,CA
48026,96025,DUNSMUIR,CA
48027,95938,DURHAM,CA
48028,95958,NELSON,CA
48029,95958,DURHAM,CA
48030,95714,DUTCH FLAT,CA
48031,95623,EL DORADO,CA
48032,95623,NASHVILLE,CA
48033,95939,ELK CREEK,CA
48034,95939,GRINDSTONE CREEK RANCHERIA,CA
48035,95624,ELK GROVE,CA
48036,95757,ELK GROVE,CA
48037,95758,ELK GROVE,CA
48038,95759,ELK GROVE,CA
48039,95625,ELMIRA,CA
48040,95317,EL NIDO,CA
48041,95318,EL PORTAL,CA
48042,95626,ELVERTA,CA
48043,95319,EMPIRE,CA
48044,95320,ESCALON,CA
48045,95607,CAPAY,CA
48046,95607,ESPARTO,CA
48047,95627,ESPARTO,CA
48048,96027,ETNA,CA
48049,96027,SAWYERS BAR,CA
48050,95628,FAIR OAKS,CA
48051,96028,FALL RIVER MILLS,CA
48052,96028,FL RIVER MLS,CA
48053,95230,FARMINGTON,CA
48054,95629,FIDDLETOWN,CA
48055,93622,FIREBAUGH,CA
48056,93623,FISH CAMP,CA
48057,93624,FIVE POINTS,CA
48058,95630,FOLSOM,CA
48059,95630,LAKE NATOMA,CA
48060,95630,MORMON ISLAND,CA
48061,95630,PINE BLUFF,CA
48062,95630,WHITE ROCK,CA
48063,95671,REPRESA,CA
48064,95671,FOLSOM,CA
48065,95671,FOLSOM PRISON,CA
48066,95762,EL DORADO HILLS,CA
48067,95762,EL DORADO HLS,CA
48068,95762,FOLSOM,CA
48069,95763,FOLSOM,CA
48070,95941,FORBESTOWN,CA
48071,95631,FORESTHILL,CA
48072,95631,BAKER RANCH,CA
48073,95631,MICHIGAN BLUFF,CA
48074,95631,TODD VALLEY,CA
48075,95942,FOREST RANCH,CA
48076,95942,BUTTE MEADOWS,CA
48077,96031,FORKS OF SALMON,CA
48078,96031,FRK OF SALMON,CA
48079,96032,FORT JONES,CA
48080,93625,FOWLER,CA
48081,95231,FRENCH CAMP,CA
48082,96033,FRENCH GULCH,CA
48083,93650,FRESNO,CA
48084,93650,PINEDALE,CA
48085,93650,FRS,CA
48086,93701,FRESNO,CA
48087,93702,FRESNO,CA
48088,93703,FRESNO,CA
48089,93704,FRESNO,CA
48090,93705,FRESNO,CA
48091,93706,FRESNO,CA
48092,93706,ROLINDA,CA
48093,93707,FRESNO,CA
48094,93708,FRESNO,CA
48095,93709,FRESNO,CA
48096,93710,FRESNO,CA
48097,93711,FRESNO,CA
48098,93712,FRESNO,CA
48099,93714,FRESNO,CA
48100,93715,FRESNO,CA
48101,93716,FRESNO,CA
48102,93717,FRESNO,CA
48103,93718,FRESNO,CA
48104,93720,FRESNO,CA
48105,93721,FRESNO,CA
48106,93722,FRESNO,CA
48107,93723,FRESNO,CA
48108,93724,FRESNO,CA
48109,93724,FRESNO SUPERIOR COURT,CA
48110,93725,FRESNO,CA
48111,93725,CALWA,CA
48112,93725,MALAGA,CA
48113,93726,FRESNO,CA
48114,93727,FRESNO,CA
48115,93728,FRESNO,CA
48116,93729,FRESNO,CA
48117,93730,FRESNO,CA
48118,93737,FRESNO,CA
48119,93740,FRESNO,CA
48120,93740,CA STATE UNIVERSITY FRESNO,CA
48121,93740,FRESNO STATE UNIVERSITY,CA
48122,93741,FRESNO,CA
48123,93741,FRESNO CITY COLLEGE,CA
48124,93744,FRESNO,CA
48125,93745,FRESNO,CA
48126,93745,CALWA,CA
48127,93747,FRESNO,CA
48128,93750,FRESNO,CA
48129,93750,FRESNO CNTY SOCIAL SVC DEPT,CA
48130,93755,FRESNO,CA
48131,93760,FRESNO,CA
48132,93760,PACIFIC GAS AND ELECTRIC,CA
48133,93761,FRESNO,CA
48134,93761,UNITED FAITH FOUND,CA
48135,93764,FRESNO,CA
48136,93764,FRESNO CITY UTILITIES,CA
48137,93765,FRESNO,CA
48138,93765,AETNA LIFE AND CASUALTY,CA
48139,93771,FRESNO,CA
48140,93772,FRESNO,CA
48141,93773,FRESNO,CA
48142,93774,FRESNO,CA
48143,93775,FRESNO,CA
48144,93776,FRESNO,CA
48145,93777,FRESNO,CA
48146,93778,FRESNO,CA
48147,93779,FRESNO,CA
48148,93786,FRESNO,CA
48149,93786,FRESNO BEE,CA
48150,93790,FRESNO,CA
48151,93791,FRESNO,CA
48152,93792,FRESNO,CA
48153,93793,FRESNO,CA
48154,93794,FRESNO,CA
48155,93844,FRESNO,CA
48156,93844,IRS,CA
48157,93888,FRESNO,CA
48158,93888,I R S,CA
48159,93626,FRIANT,CA
48160,95632,GALT,CA
48161,95633,GARDEN VALLEY,CA
48162,96034,GAZELLE,CA
48163,95634,GEORGETOWN,CA
48164,95634,BUFFALO HILL,CA
48165,95634,VIRNER,CA
48166,95634,VOLCANOVILLE,CA
48167,95634,WENTWORTH SPRINGS,CA
48168,96035,GERBER,CA
48169,95232,GLENCOE,CA
48170,95943,GLENN,CA
48171,95943,BAYLISS,CA
48172,95943,ORDBEND,CA
48173,95717,GOLD RUN,CA
48174,95717,MAGRA,CA
48175,95944,GOODYEARS BAR,CA
48176,95945,GRASS VALLEY,CA
48177,95945,ALTA HILL,CA
48178,95945,ALTA SIERRA,CA
48179,95945,BEAR RIVER PINES,CA
48180,95945,BOSTON RAVINE,CA
48181,95945,GLENBROOK HEIGHTS,CA
48182,95945,HILLS FLAT,CA
48183,95945,LA BARR MEADOWS,CA
48184,95945,PEARDALE,CA
48185,95945,SPRING HILL,CA
48186,95945,SUNSET VIEW,CA
48187,95945,UNION HILL,CA
48188,95945,WILLAURA ESTATES,CA
48189,95949,GRASS VALLEY,CA
48190,96037,GREENVIEW,CA
48191,95947,GREENVILLE,CA
48192,95947,ALMANOR,CA
48193,95635,GREENWOOD,CA
48194,96038,GRENADA,CA
48195,95948,GRIDLEY,CA
48196,95948,EAST GRIDLEY,CA
48197,95948,MANZANITA,CA
48198,95950,GRIMES,CA
48199,95636,GRIZZLY FLATS,CA
48200,95321,GROVELAND,CA
48201,95637,GUINDA,CA
48202,95679,RUMSEY,CA
48203,95322,GUSTINE,CA
48204,95322,SANTA NELLA,CA
48205,95951,HAMILTON CITY,CA
48206,95951,MILLS ORCHARD,CA
48207,96039,HAPPY CAMP,CA
48208,96040,HAT CREEK,CA
48209,95233,HATHAWAY PINES,CA
48210,95233,HATHAWAY PNES,CA
48211,96041,HAYFORK,CA
48212,96041,PEANUT,CA
48213,93627,HELM,CA
48214,95638,HERALD,CA
48215,95638,CLAY,CA
48216,95323,HICKMAN,CA
48217,95324,HILMAR,CA
48218,95234,HOLT,CA
48219,95639,HOOD,CA
48220,96044,HORNBROOK,CA
48221,96044,HILT,CA
48222,95325,HORNITOS,CA
48223,95326,HUGHSON,CA
48224,96046,HYAMPOM,CA
48225,96047,IGO,CA
48226,96047,ONO,CA
48227,95640,IONE,CA
48228,95640,CAMANCHE LAKE,CA
48229,95640,CARBONDALE,CA
48230,95640,SUNNYBROOK,CA
48231,95641,ISLETON,CA
48232,95641,ANDRUS ISLAND,CA
48233,95641,BOULDIN ISLAND,CA
48234,95641,BRANNAN ISLAND,CA
48235,95642,JACKSON,CA
48236,95642,CLINTON,CA
48237,95654,MARTELL,CA
48238,95654,JACKSON,CA
48239,95327,JAMESTOWN,CA
48240,96048,JUNCTION CITY,CA
48241,96048,HELENA,CA
48242,93630,KERMAN,CA
48243,95328,KEYES,CA
48244,93631,KINGSBURG,CA
48245,96050,KLAMATH RIVER,CA
48246,96050,HORSE CREEK,CA
48247,95645,KNIGHTS LANDING,CA
48248,95645,KNIGHTS LNDG,CA
48249,95720,KYBURZ,CA
48250,95720,SILVER FORK,CA
48251,95329,LA GRANGE,CA
48252,96051,LAKEHEAD,CA
48253,96070,OBRIEN,CA
48254,96070,LAKEHEAD,CA
48255,95330,LATHROP,CA
48256,95333,LE GRAND,CA
48257,96052,LEWISTON,CA
48258,95648,LINCOLN,CA
48259,95236,LINDEN,CA
48260,95953,LIVE OAK,CA
48261,95953,PENNINGTON,CA
48262,95334,LIVINGSTON,CA
48263,95237,LOCKEFORD,CA
48264,95240,LODI,CA
48265,95241,LODI,CA
48266,95242,LODI,CA
48267,95335,LONG BARN,CA
48268,95335,COLD SPRINGS,CA
48269,96054,LOOKOUT,CA
48270,95650,LOOMIS,CA
48271,93635,LOS BANOS,CA
48272,96055,LOS MOLINOS,CA
48273,95651,LOTUS,CA
48274,96056,MCARTHUR,CA
48275,96056,LITTLE VALLEY,CA
48276,96056,PITTVILLE,CA
48277,96057,MCCLOUD,CA
48278,96058,MACDOEL,CA
48279,93636,MADERA,CA
48280,93637,MADERA,CA
48281,93637,BERENDA,CA
48282,93638,MADERA,CA
48283,93639,MADERA,CA
48284,95653,MADISON,CA
48285,95954,MAGALIA,CA
48286,95954,NIMSHEW,CA
48287,95954,PARADISE PINES,CA
48288,95336,MANTECA,CA
48289,95337,MANTECA,CA
48290,96059,MANTON,CA
48291,95338,MARIPOSA,CA
48292,95901,MARYSVILLE,CA
48293,95901,LINDA,CA
48294,95901,LOMA RICA,CA
48295,95901,HALLWOOD,CA
48296,95901,HAMMONTON,CA
48297,95903,BEALE AFB,CA
48298,95903,MARYSVILLE,CA
48299,95955,MAXWELL,CA
48300,95956,MEADOW VALLEY,CA
48301,95956,SPANISH RANCH,CA
48302,95722,MEADOW VISTA,CA
48303,93640,MENDOTA,CA
48304,95340,MERCED,CA
48305,95341,MERCED,CA
48306,95343,MERCED,CA
48307,95344,MERCED,CA
48308,95348,MERCED,CA
48309,95957,MERIDIAN,CA
48310,95957,SYCAMORE,CA
48311,95345,MIDPINES,CA
48312,96062,MILLVILLE,CA
48313,96061,MILL CREEK,CA
48314,96061,MINERAL,CA
48315,96063,MINERAL,CA
48316,96063,LASSEN VOLCANIC NATIONAL PAR,CA
48317,93603,BADGER,CA
48318,93603,MIRAMONTE,CA
48319,93628,HUME,CA
48320,93628,MIRAMONTE,CA
48321,93633,KINGS CANYON NATIONAL PK,CA
48322,93633,KCNP,CA
48323,93633,KINGS CANYON,CA
48324,93633,KINGS CANYON NATL PARK,CA
48325,93633,MIRAMONTE,CA
48326,93633,GRANT GROVE,CA
48327,93633,WILSONIA,CA
48328,93641,MIRAMONTE,CA
48329,93641,PINEHURST,CA
48330,95346,MI WUK VILLAGE,CA
48331,95346,MI WUK VLG,CA
48332,95347,MOCCASIN,CA
48333,95350,MODESTO,CA
48334,95351,MODESTO,CA
48335,95352,MODESTO,CA
48336,95353,MODESTO,CA
48337,95354,MODESTO,CA
48338,95355,MODESTO,CA
48339,95356,MODESTO,CA
48340,95357,MODESTO,CA
48341,95358,MODESTO,CA
48342,95397,MODESTO,CA
48343,95397,MODESTO BRM ZIP,CA
48344,95245,MOKELUMNE HILL,CA
48345,95245,MOKELUMNE HL,CA
48346,96064,MONTAGUE,CA
48347,96065,MONTGOMERY CREEK,CA
48348,96065,MONTGOMRY CRK,CA
48349,95246,MOUNTAIN RANCH,CA
48350,95246,MTN RANCH,CA
48351,95246,SHEEP RANCH,CA
48352,95246,SHEEPRANCH,CA
48353,96067,MOUNT SHASTA,CA
48354,95656,MOUNT AUKUM,CA
48355,95675,RIVER PINES,CA
48356,95675,MOUNT AUKUM,CA
48357,95229,DOUGLAS FLAT,CA
48358,95229,VALLECITO,CA
48359,95229,MURPHYS,CA
48360,95247,MURPHYS,CA
48361,95959,NEVADA CITY,CA
48362,95959,CHEROKEE,CA
48363,95959,GRANITEVILLE,CA
48364,95959,NORTH BLOOMFIELD,CA
48365,95959,NORTH COLUMBIA,CA
48366,95658,NEWCASTLE,CA
48367,95360,NEWMAN,CA
48368,95659,NICOLAUS,CA
48369,95659,EAST NICOLAUS,CA
48370,95659,TROWBRIDGE,CA
48371,95659,VERONA,CA
48372,95659,VERONA LANDING,CA
48373,93643,NORTH FORK,CA
48374,95652,MCCLELLAN,CA
48375,95660,NORTH HIGHLANDS,CA
48376,95660,N HIGHLANDS,CA
48377,95960,NORTH SAN JUAN,CA
48378,95960,N SAN JUAN,CA
48379,95960,PIKE,CA
48380,95960,SWEETLAND,CA
48381,96068,NUBIEBER,CA
48382,95361,OAKDALE,CA
48383,95361,KNIGHTS FERRY,CA
48384,95361,VALLEY HOME,CA
48385,93644,OAKHURST,CA
48386,96069,OAK RUN,CA
48387,96071,OLD STATION,CA
48388,95961,OLIVEHURST,CA
48389,95961,ARBOGA,CA
48390,95961,PLUMAS LAKE,CA
48391,95961,WEST LINDA,CA
48392,93645,O NEALS,CA
48393,93646,ORANGE COVE,CA
48394,93646,SQUAW VALLEY,CA
48395,93675,SQUAW VALLEY,CA
48396,93675,ORANGE COVE,CA
48397,95662,ORANGEVALE,CA
48398,95662,CITRUS HEIGHTS,CA
48399,95662,OVALE,CA
48400,95962,OREGON HOUSE,CA
48401,95962,RENAISSANCE,CA
48402,95963,ORLAND,CA
48403,95963,NEWVILLE,CA
48404,93647,OROSI,CA
48405,93647,EAST OROSI,CA
48406,95915,BELDEN,CA
48407,95915,OROVILLE,CA
48408,95915,CARIBOU,CA
48409,95915,GANSER BAR,CA
48410,95940,FEATHER FALLS,CA
48411,95940,OROVILLE,CA
48412,95965,OROVILLE,CA
48413,95965,BUTTE VALLEY,CA
48414,95965,PULGA,CA
48415,95965,YANKEE HILL,CA
48416,95965,CHEROKEE,CA
48417,95965,HONCUT,CA
48418,95965,HURLETON,CA
48419,95965,JARBO,CA
48420,95965,LAS PLUMAS,CA
48421,95965,OAK GROVE,CA
48422,95965,OREGON CITY,CA
48423,95965,PENTZ,CA
48424,95965,ROBINSONS CORNER,CA
48425,95965,SOUTH OROVILLE,CA
48426,95965,THERMALITO,CA
48427,95965,VILLA VERONA,CA
48428,95965,WYANDOTTE,CA
48429,95966,OROVILLE,CA
48430,95980,STORRIE,CA
48431,95980,OROVILLE,CA
48432,95980,ROCK CREEK,CA
48433,95980,ROCK CREST,CA
48434,95980,ROGERS FLAT,CA
48435,95980,TOBIN,CA
48436,95968,PALERMO,CA
48437,96073,PALO CEDRO,CA
48438,95967,PARADISE,CA
48439,95969,PARADISE,CA
48440,93648,PARLIER,CA
48441,96074,PASKENTA,CA
48442,95363,PATTERSON,CA
48443,95363,DIABLO GRANDE,CA
48444,95363,GRAYSON,CA
48445,95663,PENRYN,CA
48446,93649,PIEDRA,CA
48447,95664,PILOT HILL,CA
48448,95364,PINECREST,CA
48449,95364,DARDANELLE,CA
48450,95375,STRAWBERRY,CA
48451,95375,PINECREST,CA
48452,95665,PINE GROVE,CA
48453,95644,KIT CARSON,CA
48454,95644,PIONEER,CA
48455,95646,KIRKWOOD,CA
48456,95646,PIONEER,CA
48457,95646,AMADOR STATION,CA
48458,95646,BLACK STATION,CA
48459,95646,BUCKHORN,CA
48460,95646,HAMS STATION,CA
48461,95646,IRON MOUNTAIN,CA
48462,95646,PEDDLER HILL,CA
48463,95666,PIONEER,CA
48464,95666,SILVER LAKE,CA
48465,95667,PLACERVILLE,CA
48466,95667,KELSEY,CA
48467,95667,BUCKS BAR,CA
48468,95667,CEDAR RAVINE,CA
48469,95667,FIVE MILE TERRACE,CA
48470,95667,GOLD HILL,CA
48471,95667,NEWTOWN,CA
48472,95667,OLD FORT JIM,CA
48473,95667,PLEASANT VALLEY,CA
48474,95667,SWANSBORO COUNTRY,CA
48475,95365,PLANADA,CA
48476,96076,PLATINA,CA
48477,96076,WILDWOOD,CA
48478,95668,PLEASANT GROVE,CA
48479,95668,PLEASANT GRV,CA
48480,95669,PLYMOUTH,CA
48481,95726,POLLOCK PINES,CA
48482,95726,PACIFIC HOUSE,CA
48483,95726,FRESH POND,CA
48484,93651,PRATHER,CA
48485,95970,PRINCETON,CA
48486,95970,CODORA,CA
48487,96078,PROBERTA,CA
48488,95971,QUINCY,CA
48489,95971,SPRING GARDEN,CA
48490,95971,BUCKS LAKE,CA
48491,95971,EAST QUINCY,CA
48492,95971,MASSACK,CA
48493,95971,SPANISH RANCH,CA
48494,95972,RACKERBY,CA
48495,95248,RAIL ROAD FLAT,CA
48496,95248,RAIL RD FLAT,CA
48497,95248,RAILROAD FLAT,CA
48498,93652,RAISIN CITY,CA
48499,95655,MATHER,CA
48500,95670,RANCHO CORDOVA,CA
48501,95670,GOLD RIVER,CA
48502,95670,RNCHO CORDOVA,CA
48503,95670,NIMBUS,CA
48504,95741,RANCHO CORDOVA,CA
48505,95741,RNCHO CORDOVA,CA
48506,95742,RANCHO CORDOVA,CA
48507,95742,RNCHO CORDOVA,CA
48508,93653,RAYMOND,CA
48509,96075,PAYNES CREEK,CA
48510,96080,RED BLUFF,CA
48511,96080,DAIRYVILLE,CA
48512,96001,REDDING,CA
48513,96001,KESWICK,CA
48514,96002,REDDING,CA
48515,96003,REDDING,CA
48516,96049,REDDING,CA
48517,96099,REDDING,CA
48518,93654,REEDLEY,CA
48519,93654,NAVELENCIA,CA
48520,95672,RESCUE,CA
48521,95974,RICHVALE,CA
48522,95673,RIO LINDA,CA
48523,95674,RIO OSO,CA
48524,95366,RIPON,CA
48525,95367,RIVERBANK,CA
48526,93607,BURREL,CA
48527,93607,RIVERDALE,CA
48528,93656,RIVERDALE,CA
48529,95676,ROBBINS,CA
48530,95677,ROCKLIN,CA
48531,95677,SUNSET WHITNEY RANCH,CA
48532,95765,ROCKLIN,CA
48533,95661,ROSEVILLE,CA
48534,95678,ROSEVILLE,CA
48535,95746,GRANITE BAY,CA
48536,95746,ROSEVILLE,CA
48537,95747,ROSEVILLE,CA
48538,95946,PENN VALLEY,CA
48539,95946,LAKE WILDWOOD,CA
48540,95975,ROUGH AND READY,CA
48541,95975,ROUGH READY,CA
48542,96084,ROUND MOUNTAIN,CA
48543,96084,ROUND MTN,CA
48544,95680,RYDE,CA
48545,94203,SACRAMENTO,CA
48546,94204,SACRAMENTO,CA
48547,94205,SACRAMENTO,CA
48548,94206,SACRAMENTO,CA
48549,94207,SACRAMENTO,CA
48550,94208,SACRAMENTO,CA
48551,94209,SACRAMENTO,CA
48552,94211,SACRAMENTO,CA
48553,94229,SACRAMENTO,CA
48554,94230,SACRAMENTO,CA
48555,94232,SACRAMENTO,CA
48556,94234,SACRAMENTO,CA
48557,94235,SACRAMENTO,CA
48558,94236,SACRAMENTO,CA
48559,94237,SACRAMENTO,CA
48560,94239,SACRAMENTO,CA
48561,94240,SACRAMENTO,CA
48562,94244,SACRAMENTO,CA
48563,94245,SACRAMENTO,CA
48564,94246,SACRAMENTO,CA
48565,94247,SACRAMENTO,CA
48566,94248,SACRAMENTO,CA
48567,94249,SACRAMENTO,CA
48568,94250,SACRAMENTO,CA
48569,94252,SACRAMENTO,CA
48570,94254,SACRAMENTO,CA
48571,94256,SACRAMENTO,CA
48572,94257,SACRAMENTO,CA
48573,94258,SACRAMENTO,CA
48574,94259,SACRAMENTO,CA
48575,94261,SACRAMENTO,CA
48576,94262,SACRAMENTO,CA
48577,94263,SACRAMENTO,CA
48578,94267,SACRAMENTO,CA
48579,94268,SACRAMENTO,CA
48580,94269,SACRAMENTO,CA
48581,94271,SACRAMENTO,CA
48582,94273,SACRAMENTO,CA
48583,94274,SACRAMENTO,CA
48584,94277,SACRAMENTO,CA
48585,94278,SACRAMENTO,CA
48586,94279,SACRAMENTO,CA
48587,94280,SACRAMENTO,CA
48588,94282,SACRAMENTO,CA
48589,94283,SACRAMENTO,CA
48590,94284,SACRAMENTO,CA
48591,94285,SACRAMENTO,CA
48592,94286,SACRAMENTO,CA
48593,94287,SACRAMENTO,CA
48594,94288,SACRAMENTO,CA
48595,94289,SACRAMENTO,CA
48596,94290,SACRAMENTO,CA
48597,94291,SACRAMENTO,CA
48598,94293,SACRAMENTO,CA
48599,94294,SACRAMENTO,CA
48600,94295,SACRAMENTO,CA
48601,94296,SACRAMENTO,CA
48602,94297,SACRAMENTO,CA
48603,94298,SACRAMENTO,CA
48604,94299,SACRAMENTO,CA
48605,94299,CA BRM ZIP,CA
48606,95811,SACRAMENTO,CA
48607,95812,SACRAMENTO,CA
48608,95813,SACRAMENTO,CA
48609,95814,SACRAMENTO,CA
48610,95815,SACRAMENTO,CA
48611,95815,NORTH SACRAMENTO,CA
48612,95816,SACRAMENTO,CA
48613,95817,SACRAMENTO,CA
48614,95818,SACRAMENTO,CA
48615,95819,SACRAMENTO,CA
48616,95820,SACRAMENTO,CA
48617,95820,FRUITRIDGE,CA
48618,95821,SACRAMENTO,CA
48619,95821,NORTH HIGHLANDS,CA
48620,95822,SACRAMENTO,CA
48621,95823,SACRAMENTO,CA
48622,95824,SACRAMENTO,CA
48623,95825,SACRAMENTO,CA
48624,95826,SACRAMENTO,CA
48625,95826,WALSH STATION,CA
48626,95827,SACRAMENTO,CA
48627,95828,SACRAMENTO,CA
48628,95829,SACRAMENTO,CA
48629,95830,SACRAMENTO,CA
48630,95831,SACRAMENTO,CA
48631,95832,SACRAMENTO,CA
48632,95833,SACRAMENTO,CA
48633,95834,SACRAMENTO,CA
48634,95835,SACRAMENTO,CA
48635,95836,SACRAMENTO,CA
48636,95837,SACRAMENTO,CA
48637,95838,SACRAMENTO,CA
48638,95840,SACRAMENTO,CA
48639,95840,FRANCHISE TAX BOARD,CA
48640,95841,SACRAMENTO,CA
48641,95842,SACRAMENTO,CA
48642,95843,ANTELOPE,CA
48643,95843,SACRAMENTO,CA
48644,95851,SACRAMENTO,CA
48645,95852,SACRAMENTO,CA
48646,95853,SACRAMENTO,CA
48647,95860,SACRAMENTO,CA
48648,95864,SACRAMENTO,CA
48649,95865,SACRAMENTO,CA
48650,95866,SACRAMENTO,CA
48651,95867,SACRAMENTO,CA
48652,95867,FRANCHISE TAX BRD REFUNDS,CA
48653,95887,SACRAMENTO,CA
48654,95887,AT&T,CA
48655,95894,SACRAMENTO,CA
48656,95894,CA STATE DMV,CA
48657,95899,SACRAMENTO,CA
48658,95368,SALIDA,CA
48659,95249,SAN ANDREAS,CA
48660,93657,SANGER,CA
48661,93657,CENTERVILLE,CA
48662,93657,MINKLER,CA
48663,93657,TIVY VALLEY,CA
48664,93660,SAN JOAQUIN,CA
48665,93661,SANTA RITA PARK,CA
48666,93661,SANTA RITA PK,CA
48667,96085,SCOTT BAR,CA
48668,96086,SEIAD VALLEY,CA
48669,93662,SELMA,CA
48670,93662,CONEJO,CA
48671,96087,SHASTA,CA
48672,96095,WHISKEYTOWN,CA
48673,93634,LAKESHORE,CA
48674,93634,SHAVER LAKE,CA
48675,93642,MONO HOT SPRINGS,CA
48676,93642,MONO HOT SPGS,CA
48677,93642,SHAVER LAKE,CA
48678,93664,SHAVER LAKE,CA
48679,95681,SHERIDAN,CA
48680,95682,SHINGLE SPRINGS,CA
48681,95682,CAMERON PARK,CA
48682,95682,LATROBE,CA
48683,95682,SHINGLE SPGS,CA
48684,96088,SHINGLETOWN,CA
48685,96088,VIOLA,CA
48686,95683,SLOUGHHOUSE,CA
48687,95683,RANCHO MURIETA,CA
48688,95683,RNCHO MURIETA,CA
48689,95977,SMARTSVILLE,CA
48690,95977,BIG OAK VALLEY,CA
48691,95977,BIG OAK VLY,CA
48692,95977,FRENCH CORRAL,CA
48693,95369,SNELLING,CA
48694,95724,NORDEN,CA
48695,95724,SODA SPRINGS,CA
48696,95728,SODA SPRINGS,CA
48697,95728,CISCO,CA
48698,95728,KINGVALE,CA
48699,95728,SERENE LAKES,CA
48700,95728,THE CEDARS,CA
48701,95684,SOMERSET,CA
48702,95684,FAIR PLAY,CA
48703,95684,OMO RANCH,CA
48704,95684,OUTINGDALE,CA
48705,95370,SONORA,CA
48706,95373,STANDARD,CA
48707,95373,SONORA,CA
48708,95372,SOULSBYVILLE,CA
48709,93665,SOUTH DOS PALOS,CA
48710,93665,S DOS PALOS,CA
48711,95374,STEVINSON,CA
48712,95978,STIRLING CITY,CA
48713,95201,STOCKTON,CA
48714,95201,STKN,CA
48715,95202,STOCKTON,CA
48716,95202,STKN,CA
48717,95203,STOCKTON,CA
48718,95203,STKN,CA
48719,95204,STOCKTON,CA
48720,95204,STKN,CA
48721,95205,STOCKTON,CA
48722,95205,STKN,CA
48723,95206,STOCKTON,CA
48724,95206,STKN,CA
48725,95207,STOCKTON,CA
48726,95207,STKN,CA
48727,95208,STOCKTON,CA
48728,95208,STKN,CA
48729,95209,STOCKTON,CA
48730,95209,STKN,CA
48731,95210,STOCKTON,CA
48732,95210,STKN,CA
48733,95211,STOCKTON,CA
48734,95211,STKN,CA
48735,95211,UNIV OF THE PACIFIC,CA
48736,95212,STOCKTON,CA
48737,95212,MORADA,CA
48738,95212,STKN,CA
48739,95213,STOCKTON,CA
48740,95213,STKN,CA
48741,95215,STOCKTON,CA
48742,95215,STKN,CA
48743,95219,STOCKTON,CA
48744,95219,STKN,CA
48745,95267,STOCKTON,CA
48746,95267,STKN,CA
48747,95269,STOCKTON,CA
48748,95269,STKN,CA
48749,95296,STOCKTON,CA
48750,95296,LYOTH,CA
48751,95296,DEFENSE DIST REGION,CA
48752,95297,STOCKTON,CA
48753,95297,STOCKTON BRM ZIP,CA
48754,95979,STONYFORD,CA
48755,95979,FOUTS SPRINGS,CA
48756,95979,LODOGA,CA
48757,95979,SITES,CA
48758,93666,SULTANA,CA
48759,95982,SUTTER,CA
48760,95685,SUTTER CREEK,CA
48761,95685,SUTTER HILL,CA
48762,95699,DRYTOWN,CA
48763,95699,SUTTER CREEK,CA
48764,95983,TAYLORSVILLE,CA
48765,95983,GENESEE,CA
48766,96090,TEHAMA,CA
48767,95686,THORNTON,CA
48768,93667,TOLLHOUSE,CA
48769,95304,TRACY,CA
48770,95304,BANTA,CA
48771,95376,TRACY,CA
48772,95377,TRACY,CA
48773,95378,TRACY,CA
48774,95385,VERNALIS,CA
48775,95385,TRACY,CA
48776,95391,TRACY,CA
48777,95391,MOUNTAIN HOUSE,CA
48778,95391,MTN HOUSE,CA
48779,93668,TRANQUILLITY,CA
48780,93673,TRAVER,CA
48781,96091,TRINITY CENTER,CA
48782,96091,TRINITY CTR,CA
48783,95379,TUOLUMNE,CA
48784,95380,TURLOCK,CA
48785,95381,TURLOCK,CA
48786,95382,TURLOCK,CA
48787,95984,TWAIN,CA
48788,95984,VIRGILIA,CA
48789,95383,TWAIN HARTE,CA
48790,95721,ECHO LAKE,CA
48791,95721,TWIN BRIDGES,CA
48792,95735,TWIN BRIDGES,CA
48793,95687,VACAVILLE,CA
48794,95688,VACAVILLE,CA
48795,95688,ALLENDALE,CA
48796,95696,VACAVILLE,CA
48797,95251,VALLECITO,CA
48798,95226,CAMPO SECO,CA
48799,95226,VALLEY SPGS,CA
48800,95226,VALLEY SPRINGS,CA
48801,95252,VALLEY SPRINGS,CA
48802,95252,VALLEY SPGS,CA
48803,95253,VICTOR,CA
48804,96092,VINA,CA
48805,95689,VOLCANO,CA
48806,95254,WALLACE,CA
48807,95690,WALNUT GROVE,CA
48808,95690,EAGLE TREE,CA
48809,95690,GRAND ISLAND,CA
48810,95690,HOWARD LANDING,CA
48811,95690,LOCKE,CA
48812,95690,LONG ISLAND,CA
48813,95690,RYER ISLAND,CA
48814,95690,VORDEN,CA
48815,95690,WALKER LANDING,CA
48816,95986,WASHINGTON,CA
48817,95386,WATERFORD,CA
48818,96093,WEAVERVILLE,CA
48819,96094,WEED,CA
48820,96094,EDGEWOOD,CA
48821,96094,HAMMOND RANCH,CA
48822,95736,WEIMAR,CA
48823,95387,WESTLEY,CA
48824,95255,WEST POINT,CA
48825,95605,WEST SACRAMENTO,CA
48826,95605,BRODERICK,CA
48827,95605,BRYTE,CA
48828,95605,W SACRAMENTO,CA
48829,95605,RIVER BANK,CA
48830,95691,WEST SACRAMENTO,CA
48831,95691,W SACRAMENTO,CA
48832,95798,WEST SACRAMENTO,CA
48833,95798,W SACRAMENTO,CA
48834,95798,WEST SACTO,CA
48835,95799,WEST SACRAMENTO,CA
48836,95799,W SACRAMENTO,CA
48837,95692,WHEATLAND,CA
48838,96096,WHITMORE,CA
48839,95987,WILLIAMS,CA
48840,95987,LEESVILLE,CA
48841,95987,WILBUR SPRINGS,CA
48842,95988,WILLOWS,CA
48843,95988,FRUTO,CA
48844,95257,WILSEYVILLE,CA
48845,95693,WILTON,CA
48846,95694,WINTERS,CA
48847,95388,WINTON,CA
48848,95258,WOODBRIDGE,CA
48849,95695,WOODLAND,CA
48850,95776,WOODLAND,CA
48851,93670,YETTEM,CA
48852,95697,YOLO,CA
48853,95389,YOSEMITE NATIONAL PARK,CA
48854,95389,TUOLUMNE MDWS,CA
48855,95389,TUOLUMNE MEADOWS,CA
48856,95389,WAWONA,CA
48857,95389,YOSEMITE NTPK,CA
48858,95389,YOSEMITE,CA
48859,96097,YREKA,CA
48860,95991,YUBA CITY,CA
48861,95991,TIERRA BUENA,CA
48862,95992,YUBA CITY,CA
48863,95993,YUBA CITY,CA
48864,95698,ZAMORA,CA
81660,90102,BRYLANE,CA
81661,90102,LOS ANGELES,CA
81662,90313,GENERAL TELEPHONE,CA
81663,90313,INGLEWOOD,CA
81664,90397,INGLEWOOD,CA
81665,90397,SHARED FIRM ZIP CODE,CA
81666,90398,INGLEWOOD,CA
81667,90398,ELECTRONIC DATA SYSTEMS INC,CA
81668,90612,WHITTIER,CA
81669,90612,WHITTIER ASB,CA
81670,90659,NORWALK,CA
81671,90659,MW,CA
81672,90845,BUFFUMS,CA
81673,90845,LONG BEACH,CA
81674,90888,FAR,CA
81675,90888,LONG BEACH,CA
81676,90888,FOUNDATION AIRBORNE RELIEF,CA
81677,91131,WORLD VISION INTERNATIONAL,CA
81678,91131,PASADENA,CA
81679,91191,PASADENA,CA
81680,91191,WORLD VISION INC BRM,CA
81681,91363,THOUSAND OAKS,CA
81682,91363,WESTLAKE VILLAGE,CA
81683,91363,STATE FARM,CA
81684,91363,WESTLAKE VLG,CA
81685,91388,PACIFIC TEL,CA
81686,91388,VAN NUYS,CA
81687,91399,LOCKHEED CORP,CA
81688,91399,WOODLAND HILLS,CA
81689,91399,WOODLAND HLS,CA
81690,91399,CALABASAS,CA
81691,91497,SOUTHERN CALIFORNIA GAS COMP,CA
81692,91497,VAN NUYS,CA
81693,91797,POMONA,CA
81694,91797,BUREAU OF THE CENSUS,CA
81695,91798,ONTARIO,CA
81696,91798,RMX,CA
81697,91799,FOCUS ON THE FAMILY,CA
81698,91799,POMONA,CA
81699,91841,ALHAMBRA,CA
81700,91841,CARTER HAWLEY HALE,CA
81701,91990,POTRERO,CA
81702,91990,YOUNG AMERICA,CA
81703,92090,EL CAJON,CA
81704,92090,TRAVEL LODGE,CA
81705,92133,SAN DIEGO,CA
81706,92194,SAN DIEGO,CA
81707,92292,PALM SPRINGS,CA
81708,92709,EL TORO MARINE CORPS AIR STA,CA
81709,92709,IRVINE,CA
81710,92710,IRVINE,CA
81711,92710,TUSTIN MARINE CORPS AIR,CA
81712,92710,TUSTIN MCAS,CA
81713,93093,SIMI VALLEY,CA
81714,93381,BAKERSFIELD,CA
81715,93382,BAKERSFIELD,CA
81716,93780,GOTTSCHALKS,CA
81717,93780,FRESNO,CA
81718,93784,LIBERTY MUTUAL,CA
81719,93784,FRESNO,CA
81720,94013,SF INTERNATIONAL SERVICE CTR,CA
81721,94013,DALY CITY,CA
81722,94101,SAN FRANCISCO,CA
81723,94106,FIRM HOLDOUTS,CA
81724,94106,SAN FRANCISCO,CA
81725,94135,EXPRESS MAIL REPORTING SYSTE,CA
81726,94135,SAN FRANCISCO,CA
81727,94136,SAN FRANCISCO,CA
81728,94136,SELECTIVE SERVICE,CA
81729,94138,WELLS FARGO BANK,CA
81730,94138,SAN FRANCISCO,CA
81731,94150,SAN FRANCISCO,CA
81732,94150,UNION OIL CO OF CAL,CA
81733,94152,PACIFIC GAS & ELECTRIC,CA
81734,94152,SAN FRANCISCO,CA
81735,94155,MACYS OF CALIFORNIA,CA
81736,94155,SAN FRANCISCO,CA
81737,94175,SAN FRANCISCO,CA
81738,94175,US BUREAU OF THE MINT,CA
81739,94199,PACIFIC AREA OFFICE,CA
81740,94199,SAN FRANCISCO,CA
81741,94625,NAVAL SUPPLY CENTER,CA
81742,94625,OAKLAND,CA
81743,95250,SAN ANDREAS,CA
81744,95250,SHEEP RANCH,CA
81745,95314,DARDANELLE,CA
81746,95314,PINECREST,CA